FID,FIPS_CNTRY,ISO_2DIGIT,ISO_3DIGIT,NAME,COUNTRYAFF,CONTINENT,OBJECTID,COUNTRY,TotalEvents2015_2018,TotalLengthCleanup_m,AvgLengthCleanup_m,TotalVolunteers,TotalDebrisltemsRecovered,TotalPlasticFoamFishingItemsRec,PCT_PlasticAndFoam,PCT_Glass_Rubber_Lumber_Metal,Plastic_Beverage_Bottle,Other_Plastic_Bottle,PlasticBottleCapOrLid,Plastic_FoamFoodContainer,BucketOrCrate,PlasticLighter,OtherHardPlastic,PlasticOrFoamPlatesCupsSilverwa,PlasticPersonalCareProduct,LollipopStickOrEarBud,PlasticBag,WrapperOrLabel,PlasticSheet,PlasticDrinkingStraw,OtherSoftPlastic,CigaretteButts,StringRingRibbon,PlasticStraps,FishingNet,FishingLineLureRope,FishingGlowSticks,BuoysAndFloats,OtherPlasticFishingDebris,OtherFoamPlasticDebris,OtherPlasticDebris,Top1_Value,Top1_PCT,Top1_Name,Top2_Value,Top2_PCT,Top2_Name,Top3_Value,Top3_PCT,Top3_Name,Top4_Value,Top4_PCT,Top4_Name,Top5_Value,Top5_PCT,Top5_Name,Top6_Value,Top6_PCT,Top6_Name,Top7_Value,Top7_PCT,Top7_Name,Top8_Value,Top8_PCT,Top8_Name,Top9_Value,Top9_PCT,Top9_Name,Top10_Value,Top10_PCT,Top10_Name,SHAPE_Length,SHAPE_Area
1,FP,PF,PYF,French Polynesia,France,Oceania,50,French Polynesia,2,357,178.5,,582,399,68.6,31.4,100,0,60,30,0,5,5,0,0,10,130,0,0,40,0,,0,0,0,15,0,0,0,4,,130,32.6,Plastic Bag,100,25.1,Plastic Beverage Bottle,60,15,Plastic Bottle Cap Or Lid,40,10,Plastic Drinking Straw,30,7.5,Plastic/Foam Food Container,15,3.8,"Fishing Line, Lure, Rope",10,2.5,Lollipop Stick or EarBud,5,1.3,Plastic Lighter,5,1.3,Plastic Lighter,4,1,Other Foam Plastic Debris,3.93021061908358,0.175332140003563
2,WS,WS,WSM,Samoa,Samoa,Oceania,125,Samoa,4,2109.854032,527.5,77,6889,4517,65.6,34.4,315,22,227,208,0,3,10,550,48,0,943,581,0,49,716,169,6,26,8,7,0,0,0,232,397,943,20.9,Plastic Bag,716,15.9,Other Soft Plastic,581,12.9,Wrapper or Label,550,12.2,"Plastic/Foam Plates, Cups, Silverware",397,8.8,Other Plastic Debris,315,7,Plastic Beverage Bottle,232,5.1,Other Foam Plastic Debris,227,5,Plastic Bottle Cap Or Lid,208,4.6,Plastic/Foam Food Container,169,4,Cigarette Butts,3.019661894694,0.245518905612999
3,TN,TO,TON,Tonga,Tonga,Oceania,146,Tonga,2,198,99,21,1215,499,41.1,58.9,15,0,38,5,0,0,1,29,20,0,9,269,0,0,0,0,0,0,8,2,0,0,0,0,103,269,53.9,Wrapper or Label,103,20.6,Other Plastic Debris,38,7.6,Plastic Bottle Cap Or Lid,29,5.8,"Plastic/Foam Plates, Cups, Silverware",20,4,Plastic Personal Care Product,15,3,Plastic Beverage Bottle,9,1.8,Plastic Bag,8,1.6,Fishing Net,5,1,Plastic/Foam Food Container,2,0,"Fishing Line, Lure, Rope",1.30912378224063,0.0400182033584463
4,ES,SV,SLV,El Salvador,El Salvador,North America,44,El Salvador,2,804.673544,402.3,85,11,11,100,0,10,0,0,0,0,0,0,0,0,0,0,0,0,0,0,0,0,0,0,0,0,0,0,0,1,10,90.9,Plastic Beverage Bottle,1,9.1,Other Plastic Debris,0,0,Other Plastic Bottle,0,0,Other Plastic Bottle,0,0,Other Plastic Bottle,0,0,Other Plastic Bottle,0,0,Other Plastic Bottle,0,0,Other Plastic Bottle,0,0,Other Plastic Bottle,0,0,Other Plastic Bottle,7.25357159107937,1.71903503035713
5,GT,GT,GTM,Guatemala,Guatemala,North America,58,Guatemala,50,21344.77043,426.9,529,146484,102468,70,30,86594,90,1736,467,0,3,0,2332,107,0,7291,2190,0,197,287,95,50,12,8,125,0,3,0,111,770,86594,84.5,Plastic Beverage Bottle,7291,7.1,Plastic Bag,2332,2.3,"Plastic/Foam Plates, Cups, Silverware",2190,2.1,Wrapper or Label,1736,1.7,Plastic Bottle Cap Or Lid,770,0.8,Other Plastic Debris,467,0.5,Plastic/Foam Food Container,287,0.3,Other Soft Plastic,197,0.2,Plastic Drinking Straw,125,0,"Fishing Line, Lure, Rope",16.7601499511182,9.19301468716267
6,MX,MX,MEX,Mexico,Mexico,North America,86,Mexico,653,1127881.616,1727.2,53232,1878784,1662225,88.5,11.5,604268,7531,171796,34295,0,2527,1859,87924,6250,2,70970,48263,0,36459,49146,244247,7653,1937,4066,13226,0,4068,0,89829,175909,604268,36.4,Plastic Beverage Bottle,244247,14.7,Cigarette Butts,175909,10.6,Other Plastic Debris,171796,10.3,Plastic Bottle Cap Or Lid,89829,5.4,Other Foam Plastic Debris,87924,5.3,"Plastic/Foam Plates, Cups, Silverware",70970,4.3,Plastic Bag,49146,3,Other Soft Plastic,48263,2.9,Wrapper or Label,36459,2,Plastic Drinking Straw,149.331092830837,174.117659586799
7,CA,CA,CAN,Canada,Canada,North America,26,Canada,3230,6719870.952,2080.5,80410,2419848,2204947,91.1,8.9,55666,13442,102285,34603,0,1528,14700,41979,12325,0,61063,121302,0,43817,54633,873554,3484,3322,3631,22236,0,5088,0,347557,388732,873554,39.6,Cigarette Butts,388732,17.6,Other Plastic Debris,347557,15.8,Other Foam Plastic Debris,121302,5.5,Wrapper or Label,102285,4.6,Plastic Bottle Cap Or Lid,61063,2.8,Plastic Bag,55666,2.5,Plastic Beverage Bottle,54633,2.5,Other Soft Plastic,43817,2,Plastic Drinking Straw,41979,2,"Plastic/Foam Plates, Cups, Silverware",2210.68482607105,1694.02523974735
8,AR,AR,ARG,Argentina,Argentina,South America,5,Argentina,26,14615.73011,562.1,1226,59930,52717,88,12,7208,107,5870,1446,0,392,71,3400,326,11,15507,5472,0,1136,409,7159,19,193,126,194,0,5,0,2770,896,15507,29.4,Plastic Bag,7208,13.7,Plastic Beverage Bottle,7159,13.6,Cigarette Butts,5870,11.1,Plastic Bottle Cap Or Lid,5472,10.4,Wrapper or Label,3400,6.4,"Plastic/Foam Plates, Cups, Silverware",2770,5.3,Other Foam Plastic Debris,1446,2.7,Plastic/Foam Food Container,1136,2.2,Plastic Drinking Straw,896,2,Other Plastic Debris,138.751348351601,278.308964661597
9,CI,CL,CHL,Chile,Chile,South America,29,Chile,344,451901.0986,1313.7,40221,846560,632654,74.7,25.3,33768,6793,64132,23216,0,5347,871,22772,4278,0,44208,45245,0,11165,15156,179618,3293,1913,10975,28665,0,15085,0,58820,57334,179618,28.4,Cigarette Butts,64132,10.1,Plastic Bottle Cap Or Lid,58820,9.3,Other Foam Plastic Debris,57334,9.1,Other Plastic Debris,45245,7.2,Wrapper or Label,44208,7,Plastic Bag,33768,5.3,Plastic Beverage Bottle,28665,4.5,"Fishing Line, Lure, Rope",23216,3.7,Plastic/Foam Food Container,22772,4,"Plastic/Foam Plates, Cups, Silverware",331.249881217626,77.6929921363595
10,EC,EC,ECU,Ecuador,Ecuador,South America,42,Ecuador,523,2467588.953,4718.1,116993,2598759,2073556,79.8,20.2,187963,35312,258954,232562,0,6424,4885,306616,44981,0,277596,166812,0,56041,43865,148997,9222,7994,18212,40631,0,12478,0,60528,153483,306616,14.8,"Plastic/Foam Plates, Cups, Silverware",277596,13.4,Plastic Bag,258954,12.5,Plastic Bottle Cap Or Lid,232562,11.2,Plastic/Foam Food Container,187963,9.1,Plastic Beverage Bottle,166812,8,Wrapper or Label,153483,7.4,Other Plastic Debris,148997,7.2,Cigarette Butts,60528,2.9,Other Foam Plastic Debris,56041,3,Plastic Drinking Straw,35.2205367352681,20.7536150709706
11,PE,PE,PER,Peru,Peru,South America,108,Peru,91,112250.2678,1233.5,28729,1012851,772669,76.3,23.7,22756,8466,48645,13645,0,2007,6794,89741,9823,0,38103,27226,0,7326,37329,22004,1205,2931,6997,7987,0,2951,0,257821,158912,257821,33.4,Other Foam Plastic Debris,158912,20.6,Other Plastic Debris,89741,11.6,"Plastic/Foam Plates, Cups, Silverware",48645,6.3,Plastic Bottle Cap Or Lid,38103,4.9,Plastic Bag,37329,4.8,Other Soft Plastic,27226,3.5,Wrapper or Label,22756,2.9,Plastic Beverage Bottle,22004,2.8,Cigarette Butts,13645,2,Plastic/Foam Food Container,68.2853844081708,106.500857769266
12,BR,BR,BRA,Brazil,Brazil,South America,19,Brazil,168,266971.9116,1589.1,7486,216869,190479,87.8,12.2,7804,1235,15421,4074,0,1115,1844,9980,2390,323,11612,8891,0,12822,6528,59871,1408,656,914,4299,1,411,1,11041,27838,59871,31.4,Cigarette Butts,27838,14.6,Other Plastic Debris,15421,8.1,Plastic Bottle Cap Or Lid,12822,6.7,Plastic Drinking Straw,11612,6.1,Plastic Bag,11041,5.8,Other Foam Plastic Debris,9980,5.2,"Plastic/Foam Plates, Cups, Silverware",8891,4.7,Wrapper or Label,7804,4.1,Plastic Beverage Bottle,6528,3,Other Soft Plastic,248.756714904782,707.050676125742
13,PA,PY,PRY,Paraguay,Paraguay,South America,107,Paraguay,3,7000.659832,2333.6,121,2855,2121,74.3,25.7,380,83,183,65,0,4,23,158,26,0,342,222,0,53,93,268,5,1,10,128,0,16,0,8,53,380,17.9,Plastic Beverage Bottle,342,16.1,Plastic Bag,268,12.6,Cigarette Butts,222,10.5,Wrapper or Label,183,8.6,Plastic Bottle Cap Or Lid,158,7.4,"Plastic/Foam Plates, Cups, Silverware",128,6,"Fishing Line, Lure, Rope",93,4.4,Other Soft Plastic,83,3.9,Other Plastic Bottle,65,3,Plastic/Foam Food Container,30.8918839086755,35.2087385133359
14,UY,UY,URY,Uruguay,Uruguay,South America,154,Uruguay,49,235611.3105,4808.4,5996,100415,89771,89.4,10.6,6740,756,17405,4199,0,551,492,2816,849,0,10581,7941,0,2120,1705,9461,172,391,496,968,0,180,0,7685,14263,17405,19.4,Plastic Bottle Cap Or Lid,14263,15.9,Other Plastic Debris,10581,11.8,Plastic Bag,9461,10.5,Cigarette Butts,7941,8.8,Wrapper or Label,7685,8.6,Other Foam Plastic Debris,6740,7.5,Plastic Beverage Bottle,4199,4.7,Plastic/Foam Food Container,2816,3.1,"Plastic/Foam Plates, Cups, Silverware",2120,2,Plastic Drinking Straw,18.4869710825774,17.1262446835089
15,AY,AQ,ATA,Antarctica,Antarctica,Antarctica,4,Antarctica,1,402.336772,402.3,2,7,7,100,0,1,0,0,0,0,0,0,0,0,0,0,0,0,0,1,0,0,0,0,0,0,0,0,0,5,5,71.4,Other Plastic Debris,1,14.3,Plastic Beverage Bottle,1,14.3,Plastic Beverage Bottle,0,0,Other Plastic Bottle,0,0,Other Plastic Bottle,0,0,Other Plastic Bottle,0,0,Other Plastic Bottle,0,0,Other Plastic Bottle,0,0,Other Plastic Bottle,0,0,Other Plastic Bottle,1564.14414259567,5672.92828629606
16,FJ,FJ,FJI,Fiji,Fiji,Oceania,47,Fiji,14,11283.3504,806,57,2210,1752,79.3,20.7,181,6,89,105,0,1,10,41,43,0,208,201,0,47,48,9,0,8,5,100,0,3,0,78,569,569,32.5,Other Plastic Debris,208,11.9,Plastic Bag,201,11.5,Wrapper or Label,181,10.3,Plastic Beverage Bottle,105,6,Plastic/Foam Food Container,100,5.7,"Fishing Line, Lure, Rope",89,5.1,Plastic Bottle Cap Or Lid,78,4.5,Other Foam Plastic Debris,48,2.7,Other Soft Plastic,47,3,Plastic Drinking Straw,13.1052699970371,1.53744376483482
17,SH,SH,SHN,Saint Helena,United Kingdom,Africa,120,Saint Helena,19,3169.371228,166.8,179,26158,23658,90.4,9.6,2712,34,1549,19,0,15,2,302,74,0,99,604,0,433,184,2067,0,2,430,615,0,103,0,945,13469,13469,56.9,Other Plastic Debris,2712,11.5,Plastic Beverage Bottle,2067,8.7,Cigarette Butts,1549,6.5,Plastic Bottle Cap Or Lid,945,4,Other Foam Plastic Debris,615,2.6,"Fishing Line, Lure, Rope",604,2.6,Wrapper or Label,433,1.8,Plastic Drinking Straw,430,1.8,Fishing Net,302,1,"Plastic/Foam Plates, Cups, Silverware",0.417576734375419,0.0110141093070465
18,AA,AW,ABW,Aruba,Aruba,South America,6,Aruba,4,6207.469079,1551.9,15,84,54,64.3,35.7,6,0,0,1,0,0,1,7,0,0,1,2,0,0,0,1,0,0,0,31,0,0,0,0,4,31,57.4,"Fishing Line, Lure, Rope",7,13,"Plastic/Foam Plates, Cups, Silverware",6,11.1,Plastic Beverage Bottle,4,7.4,Other Plastic Debris,2,3.7,Wrapper or Label,1,1.9,Plastic/Foam Food Container,1,1.9,Plastic/Foam Food Container,1,1.9,Plastic/Foam Food Container,1,1.9,Plastic/Foam Food Container,0,0,Other Plastic Bottle,0.610340431204682,0.0165976194125221
19,BF,BS,BHS,Bahamas,Bahamas,North America,11,Bahamas,114,148349.8524,1301.3,1894,64750,47317,73.1,26.9,4519,1218,5661,1705,0,107,606,5121,325,0,4085,2034,0,1700,1743,922,135,184,594,1545,0,122,0,1977,13014,13014,27.5,Other Plastic Debris,5661,12,Plastic Bottle Cap Or Lid,5121,10.8,"Plastic/Foam Plates, Cups, Silverware",4519,9.6,Plastic Beverage Bottle,4085,8.6,Plastic Bag,2034,4.3,Wrapper or Label,1977,4.2,Other Foam Plastic Debris,1743,3.7,Other Soft Plastic,1705,3.6,Plastic/Foam Food Container,1700,4,Plastic Drinking Straw,25.4877587144748,1.07904998657291
20,BB,BB,BRB,Barbados,Barbados,North America,13,Barbados,88,71971.48836,817.9,1984,109538,92748,84.7,15.3,8845,1687,14116,2426,0,376,347,9532,239,0,5328,7218,0,3578,4402,5769,157,500,1491,3230,0,204,0,8180,15123,15123,16.3,Other Plastic Debris,14116,15.2,Plastic Bottle Cap Or Lid,9532,10.3,"Plastic/Foam Plates, Cups, Silverware",8845,9.5,Plastic Beverage Bottle,8180,8.8,Other Foam Plastic Debris,7218,7.8,Wrapper or Label,5769,6.2,Cigarette Butts,5328,5.7,Plastic Bag,4402,4.7,Other Soft Plastic,3578,4,Plastic Drinking Straw,0.813985327152275,0.0372121084956508
21,BH,BZ,BLZ,Belize,Belize,North America,15,Belize,134,157710.8647,1176.9,3361,238084,194474,81.7,18.3,17478,1746,21982,4864,0,398,1083,16774,1805,0,17125,11639,0,9469,3539,5632,318,323,223,966,0,140,0,56004,22966,56004,28.8,Other Foam Plastic Debris,22966,11.8,Other Plastic Debris,21982,11.3,Plastic Bottle Cap Or Lid,17478,9,Plastic Beverage Bottle,17125,8.8,Plastic Bag,16774,8.6,"Plastic/Foam Plates, Cups, Silverware",11639,6,Wrapper or Label,9469,4.9,Plastic Drinking Straw,5632,2.9,Cigarette Butts,4864,2,Plastic/Foam Food Container,8.55163436504372,1.87698244026669
22,BD,BM,BMU,Bermuda,United Kingdom,North America,16,Bermuda,130,111065.0659,854.3,2026,127654,100294,78.6,21.4,4146,523,6465,1767,0,223,1019,3018,217,0,2315,3836,0,1481,4187,16080,104,238,715,3409,0,176,0,3324,47051,47051,46.9,Other Plastic Debris,16080,16,Cigarette Butts,6465,6.4,Plastic Bottle Cap Or Lid,4187,4.2,Other Soft Plastic,4146,4.1,Plastic Beverage Bottle,3836,3.8,Wrapper or Label,3409,3.4,"Fishing Line, Lure, Rope",3324,3.3,Other Foam Plastic Debris,3018,3,"Plastic/Foam Plates, Cups, Silverware",2315,2,Plastic Bag,0.391094788967101,0.00205522587375074
23,NL,BQ,BES,Bonaire,Netherlands,South America,17,Bonaire,18,22590.43875,1255,460,8629,6471,75,25,153,10,930,28,0,7,26,483,58,0,100,149,0,231,31,1393,3,42,126,1691,0,8,0,45,957,1691,26.1,"Fishing Line, Lure, Rope",1393,21.5,Cigarette Butts,957,14.8,Other Plastic Debris,930,14.4,Plastic Bottle Cap Or Lid,483,7.5,"Plastic/Foam Plates, Cups, Silverware",231,3.6,Plastic Drinking Straw,153,2.4,Plastic Beverage Bottle,149,2.3,Wrapper or Label,126,1.9,Fishing Net,100,2,Plastic Bag,0.828287378699442,0.0262603279258982
24,VI,VG,VGB,British Virgin Islands,United Kingdom,North America,20,British Virgin Islands,5,2719.796579,544,143,8052,6764,84,16,1057,135,479,123,0,11,0,215,25,0,368,229,0,191,278,206,3,70,895,311,0,17,0,162,1989,1989,29.4,Other Plastic Debris,1057,15.6,Plastic Beverage Bottle,895,13.2,Fishing Net,479,7.1,Plastic Bottle Cap Or Lid,368,5.4,Plastic Bag,311,4.6,"Fishing Line, Lure, Rope",278,4.1,Other Soft Plastic,229,3.4,Wrapper or Label,215,3.2,"Plastic/Foam Plates, Cups, Silverware",206,3,Cigarette Butts,0.639367647529674,0.00986714128807537
25,CJ,KY,CYM,Cayman Islands,United Kingdom,North America,28,Cayman Islands,20,19737.83736,986.9,370,19245,15091,78.4,21.6,2761,63,3816,670,0,48,57,1172,78,0,818,361,0,478,296,619,44,15,17,872,0,9,0,1245,1652,3816,25.3,Plastic Bottle Cap Or Lid,2761,18.3,Plastic Beverage Bottle,1652,10.9,Other Plastic Debris,1245,8.2,Other Foam Plastic Debris,1172,7.8,"Plastic/Foam Plates, Cups, Silverware",872,5.8,"Fishing Line, Lure, Rope",818,5.4,Plastic Bag,670,4.4,Plastic/Foam Food Container,619,4.1,Cigarette Butts,478,3,Plastic Drinking Straw,0.733613263258575,0.0179315101064961
26,CO,CO,COL,Colombia,Colombia,South America,31,Colombia,46,79717.66691,1733,3073,398828,380788,95.5,4.5,21956,2098,16263,4262,0,196,19,6608,1823,0,2398,3944,0,3347,6010,2777,42,77,89,174,0,278,0,304943,3484,304943,80.1,Other Foam Plastic Debris,21956,5.8,Plastic Beverage Bottle,16263,4.3,Plastic Bottle Cap Or Lid,6608,1.7,"Plastic/Foam Plates, Cups, Silverware",6010,1.6,Other Soft Plastic,4262,1.1,Plastic/Foam Food Container,3944,1,Wrapper or Label,3484,0.9,Other Plastic Debris,3347,0.9,Plastic Drinking Straw,2777,1,Cigarette Butts,70.6875322438893,92.5804896127772
27,CS,CR,CRI,Costa Rica,Costa Rica,North America,32,Costa Rica,90,59531.23825,661.5,1872,121835,119232,97.9,2.1,39087,111,42105,462,0,498,509,9519,442,22,804,3332,0,12877,484,1080,40,87,101,1575,0,20,0,695,5382,42105,35.3,Plastic Bottle Cap Or Lid,39087,32.8,Plastic Beverage Bottle,12877,10.8,Plastic Drinking Straw,9519,8,"Plastic/Foam Plates, Cups, Silverware",5382,4.5,Other Plastic Debris,3332,2.8,Wrapper or Label,1575,1.3,"Fishing Line, Lure, Rope",1080,0.9,Cigarette Butts,804,0.7,Plastic Bag,695,1,Other Foam Plastic Debris,14.7173255001862,4.21186296732416
28,CU,CU,CUB,Cuba,Cuba,North America,35,Cuba,3,2204.80551,734.9,110,5037,3571,70.9,29.1,170,21,373,291,0,3,78,430,34,0,435,305,0,140,161,731,20,34,3,10,0,0,0,63,269,731,20.5,Cigarette Butts,435,12.2,Plastic Bag,430,12,"Plastic/Foam Plates, Cups, Silverware",373,10.4,Plastic Bottle Cap Or Lid,305,8.5,Wrapper or Label,291,8.1,Plastic/Foam Food Container,269,7.5,Other Plastic Debris,170,4.8,Plastic Beverage Bottle,161,4.5,Other Soft Plastic,140,4,Plastic Drinking Straw,38.1524666677692,9.5272846716393
29,UC,CW,CUW,Curacao,Netherlands,South America,36,Curacao,40,32810.90099,820.3,380,18065,16439,91,9,392,7,281,526,0,5,5,1362,16,0,316,208,0,910,121,3093,18,58,18,8618,0,33,0,1,451,8618,52.4,"Fishing Line, Lure, Rope",3093,18.8,Cigarette Butts,1362,8.3,"Plastic/Foam Plates, Cups, Silverware",910,5.5,Plastic Drinking Straw,526,3.2,Plastic/Foam Food Container,451,2.7,Other Plastic Debris,392,2.4,Plastic Beverage Bottle,316,1.9,Plastic Bag,281,1.7,Plastic Bottle Cap Or Lid,208,1,Wrapper or Label,1.16039256625421,0.039248728762455
30,DO,DM,DMA,Dominica,Dominica,North America,40,Dominica,3,12163.96669,4054.7,9,164,136,82.9,17.1,22,2,4,4,0,0,5,8,1,0,12,27,0,2,5,0,0,0,7,29,0,8,0,0,0,29,21.3,"Fishing Line, Lure, Rope",27,19.9,Wrapper or Label,22,16.2,Plastic Beverage Bottle,12,8.8,Plastic Bag,8,5.9,"Plastic/Foam Plates, Cups, Silverware",8,5.9,"Plastic/Foam Plates, Cups, Silverware",7,5.1,Fishing Net,5,3.7,Other Hard Plastic,5,3.7,Other Hard Plastic,4,3,Plastic Bottle Cap Or Lid,1.09711764285532,0.0648351098175109
31,DR,DO,DOM,Dominican Republic,Dominican Republic,North America,41,Dominican Republic,137,188860.8236,1378.5,21757,891612,776283,87.1,12.9,66252,11960,98988,53538,0,3302,1859,132795,10605,0,36485,36550,0,32792,27942,32569,3919,6057,1771,4664,0,1509,0,146738,65988,146738,18.9,Other Foam Plastic Debris,132795,17.1,"Plastic/Foam Plates, Cups, Silverware",98988,12.8,Plastic Bottle Cap Or Lid,66252,8.5,Plastic Beverage Bottle,65988,8.5,Other Plastic Debris,53538,6.9,Plastic/Foam Food Container,36550,4.7,Wrapper or Label,36485,4.7,Plastic Bag,32792,4.2,Plastic Drinking Straw,32569,4,Cigarette Butts,13.2538162551232,4.14756946974124
32,GJ,GD,GRD,Grenada,Grenada,North America,56,Grenada,54,19370.28489,358.7,469,26090,20890,80.1,19.9,2449,133,1025,385,0,13,48,1401,89,0,1348,2438,0,233,1120,855,1,15,56,486,0,34,0,1222,7539,7539,36.1,Other Plastic Debris,2449,11.7,Plastic Beverage Bottle,2438,11.7,Wrapper or Label,1401,6.7,"Plastic/Foam Plates, Cups, Silverware",1348,6.5,Plastic Bag,1222,5.8,Other Foam Plastic Debris,1120,5.4,Other Soft Plastic,1025,4.9,Plastic Bottle Cap Or Lid,855,4.1,Cigarette Butts,486,2,"Fishing Line, Lure, Rope",0.681409313776742,0.0287531175356497
33,GY,GY,GUY,Guyana,Guyana,South America,60,Guyana,10,12292.03212,1229.2,620,47604,35099,73.7,26.3,11885,565,5124,1725,0,122,201,4682,225,0,2173,1364,0,1915,1294,374,89,159,76,156,0,17,0,1191,1762,11885,33.9,Plastic Beverage Bottle,5124,14.6,Plastic Bottle Cap Or Lid,4682,13.3,"Plastic/Foam Plates, Cups, Silverware",2173,6.2,Plastic Bag,1915,5.5,Plastic Drinking Straw,1762,5,Other Plastic Debris,1725,4.9,Plastic/Foam Food Container,1364,3.9,Wrapper or Label,1294,3.7,Other Soft Plastic,1191,3,Other Foam Plastic Debris,25.7075985227258,17.1752147555053
34,HO,HN,HND,Honduras,Honduras,North America,61,Honduras,13,17699.07497,1361.5,100,1101,963,87.5,12.5,318,23,22,7,0,0,6,45,4,0,89,83,0,6,4,33,0,1,1,29,0,3,0,0,289,318,33,Plastic Beverage Bottle,289,30,Other Plastic Debris,89,9.2,Plastic Bag,83,8.6,Wrapper or Label,45,4.7,"Plastic/Foam Plates, Cups, Silverware",33,3.4,Cigarette Butts,29,3,"Fishing Line, Lure, Rope",23,2.4,Other Plastic Bottle,22,2.3,Plastic Bottle Cap Or Lid,7,1,Plastic/Foam Food Container,20.9717469318551,9.4223239965096
35,JM,JM,JAM,Jamaica,Jamaica,North America,70,Jamaica,442,601275.0857,1360.4,28421,2198644,1954173,88.9,11.1,785408,35560,265902,85283,0,12091,5212,201040,9633,0,134940,70444,0,28238,49110,18348,2994,3213,4488,7923,0,2072,0,115052,117222,785408,40.2,Plastic Beverage Bottle,265902,13.6,Plastic Bottle Cap Or Lid,201040,10.3,"Plastic/Foam Plates, Cups, Silverware",134940,6.9,Plastic Bag,117222,6,Other Plastic Debris,115052,5.9,Other Foam Plastic Debris,85283,4.4,Plastic/Foam Food Container,70444,3.6,Wrapper or Label,49110,2.5,Other Soft Plastic,35560,2,Other Plastic Bottle,5.38581954323719,0.9424338334995
36,MH,MS,MSR,Montserrat,United Kingdom,North America,89,Montserrat,8,5761.462575,720.2,32,1485,1014,68.3,31.7,105,7,2,3,0,2,4,75,1,0,134,212,0,3,12,0,0,3,2,30,0,1,0,0,418,418,41.2,Other Plastic Debris,212,20.9,Wrapper or Label,134,13.2,Plastic Bag,105,10.4,Plastic Beverage Bottle,75,7.4,"Plastic/Foam Plates, Cups, Silverware",30,3,"Fishing Line, Lure, Rope",12,1.2,Other Soft Plastic,7,0.7,Other Plastic Bottle,4,0.4,Other Hard Plastic,3,0,Plastic/Foam Food Container,0.378841025432753,0.0095387891239555
37,NU,NI,NIC,Nicaragua,Nicaragua,North America,98,Nicaragua,59,65417.70604,1108.8,2864,161276,138074,85.6,14.4,19811,1236,16912,5998,0,405,828,12073,2824,0,29016,10519,0,6261,1547,6320,359,195,446,671,0,101,0,10587,11965,29016,21,Plastic Bag,19811,14.3,Plastic Beverage Bottle,16912,12.2,Plastic Bottle Cap Or Lid,12073,8.7,"Plastic/Foam Plates, Cups, Silverware",11965,8.7,Other Plastic Debris,10587,7.7,Other Foam Plastic Debris,10519,7.6,Wrapper or Label,6320,4.6,Cigarette Butts,6261,4.5,Plastic Drinking Straw,5998,4,Plastic/Foam Food Container,18.0306744430599,10.6687971002248
38,PM,PA,PAN,Panama,Panama,North America,106,Panama,140,223502.4354,1596.4,14665,418122,349691,83.6,16.4,132322,7538,18781,17727,0,602,321,25633,4215,0,25212,12985,0,4590,8313,2635,5102,698,1345,3170,0,918,0,42887,34697,132322,37.8,Plastic Beverage Bottle,42887,12.3,Other Foam Plastic Debris,34697,9.9,Other Plastic Debris,25633,7.3,"Plastic/Foam Plates, Cups, Silverware",25212,7.2,Plastic Bag,18781,5.4,Plastic Bottle Cap Or Lid,17727,5.1,Plastic/Foam Food Container,12985,3.7,Wrapper or Label,8313,2.4,Other Soft Plastic,7538,2,Other Plastic Bottle,25.3007549806234,6.08830115135263
39,RQ,PR,PRI,Puerto Rico,United States,North America,112,Puerto Rico,481,1054493.871,2192.3,34767,1237288,954138,77.1,22.9,86191,8172,142413,25372,0,2731,7732,110011,6662,0,43970,36459,0,94288,22503,159695,4000,3249,2400,13522,0,1365,0,49292,134111,159695,16.7,Cigarette Butts,142413,14.9,Plastic Bottle Cap Or Lid,134111,14.1,Other Plastic Debris,110011,11.5,"Plastic/Foam Plates, Cups, Silverware",94288,9.9,Plastic Drinking Straw,86191,9,Plastic Beverage Bottle,49292,5.2,Other Foam Plastic Debris,43970,4.6,Plastic Bag,36459,3.8,Wrapper or Label,25372,3,Plastic/Foam Food Container,4.78861765568475,0.78135081490866
40,NL,BQ,BES,Saba,Netherlands,North America,117,Saba,5,3814.152598,762.8,111,2486,1751,70.4,29.6,99,16,172,20,0,7,62,183,1,0,90,62,0,106,207,428,2,12,7,45,0,5,0,37,190,428,24.4,Cigarette Butts,207,11.8,Other Soft Plastic,190,10.9,Other Plastic Debris,183,10.5,"Plastic/Foam Plates, Cups, Silverware",172,9.8,Plastic Bottle Cap Or Lid,106,6.1,Plastic Drinking Straw,99,5.7,Plastic Beverage Bottle,90,5.1,Plastic Bag,62,3.5,Other Hard Plastic,62,4,Other Hard Plastic,0.131117771476436,0.00120397213795296
41,TB,BL,BLM,Saint Barthelemy,France,North America,118,Saint Barthelemy,5,69.5237942,13.9,7,89,56,62.9,37.1,4,0,1,1,0,0,0,1,1,0,0,5,0,1,5,10,0,0,0,6,0,0,0,0,21,21,37.5,Other Plastic Debris,10,17.9,Cigarette Butts,6,10.7,"Fishing Line, Lure, Rope",5,8.9,Wrapper or Label,5,8.9,Wrapper or Label,4,7.1,Plastic Beverage Bottle,1,1.8,Plastic Bottle Cap Or Lid,1,1.8,Plastic Bottle Cap Or Lid,1,1.8,Plastic Bottle Cap Or Lid,1,2,Plastic Bottle Cap Or Lid,0.231813566585995,0.00197754917672966
42,NL,BQ,BES,Saint Eustatius,Netherlands,North America,119,Saint Eustatius,2,1013.888665,506.9,16,2936,2752,93.7,6.3,311,88,700,127,0,8,5,110,1,0,75,268,0,60,151,7,1,15,52,219,0,45,0,104,405,700,25.4,Plastic Bottle Cap Or Lid,405,14.7,Other Plastic Debris,311,11.3,Plastic Beverage Bottle,268,9.7,Wrapper or Label,219,8,"Fishing Line, Lure, Rope",151,5.5,Other Soft Plastic,127,4.6,Plastic/Foam Food Container,110,4,"Plastic/Foam Plates, Cups, Silverware",104,3.8,Other Foam Plastic Debris,88,3,Other Plastic Bottle,0.195131825801873,0.00203748936835838
43,SC,KN,KNA,Saint Kitts and Nevis,Saint Kitts and Nevis,North America,121,Saint Kitts and Nevis,31,39525.56448,1275,1025,35275,32316,91.6,8.4,8941,1392,6929,919,0,70,6,2070,22,0,1434,564,0,451,842,88,69,57,713,1855,0,179,0,1393,4322,8941,27.7,Plastic Beverage Bottle,6929,21.4,Plastic Bottle Cap Or Lid,4322,13.4,Other Plastic Debris,2070,6.4,"Plastic/Foam Plates, Cups, Silverware",1855,5.7,"Fishing Line, Lure, Rope",1434,4.4,Plastic Bag,1393,4.3,Other Foam Plastic Debris,1392,4.3,Other Plastic Bottle,919,2.8,Plastic/Foam Food Container,842,3,Other Soft Plastic,0.666472582772765,0.0166259773422333
44,ST,LC,LCA,Saint Lucia,Saint Lucia,North America,122,Saint Lucia,27,24890.38254,921.9,479,39216,31804,81.1,18.9,12602,780,3871,1079,0,69,238,3361,295,0,1550,1827,0,492,545,1473,17,89,148,379,0,25,0,1318,1646,12602,39.6,Plastic Beverage Bottle,3871,12.2,Plastic Bottle Cap Or Lid,3361,10.6,"Plastic/Foam Plates, Cups, Silverware",1827,5.7,Wrapper or Label,1646,5.2,Other Plastic Debris,1550,4.9,Plastic Bag,1473,4.6,Cigarette Butts,1318,4.1,Other Foam Plastic Debris,1079,3.4,Plastic/Foam Food Container,780,2,Other Plastic Bottle,0.952987653511455,0.0531243978838294
45,RN,MF,MAF,Saint Martin,France,North America,123,Saint Martin,1,3218.694176,3218.7,314,4509,2951,65.4,34.6,1180,142,111,12,0,9,14,513,4,0,628,56,0,106,44,72,8,18,6,23,0,5,0,0,0,1180,40,Plastic Beverage Bottle,628,21.3,Plastic Bag,513,17.4,"Plastic/Foam Plates, Cups, Silverware",142,4.8,Other Plastic Bottle,111,3.8,Plastic Bottle Cap Or Lid,106,3.6,Plastic Drinking Straw,72,2.4,Cigarette Butts,56,1.9,Wrapper or Label,44,1.5,Other Soft Plastic,23,1,"Fishing Line, Lure, Rope",0.408210816892102,0.00462211858489686
46,VC,VC,VCT,Saint Vincent and the Grenadines,Saint Vincent and the Grenadines,North America,124,Saint Vincent and the Grenadines,15,5396.945459,359.8,170,15466,10125,65.5,34.5,4466,221,1008,758,0,9,23,635,45,0,889,255,0,97,249,137,12,33,60,424,0,49,0,348,407,4466,44.1,Plastic Beverage Bottle,1008,10,Plastic Bottle Cap Or Lid,889,8.8,Plastic Bag,758,7.5,Plastic/Foam Food Container,635,6.3,"Plastic/Foam Plates, Cups, Silverware",424,4.2,"Fishing Line, Lure, Rope",407,4,Other Plastic Debris,348,3.4,Other Foam Plastic Debris,255,2.5,Wrapper or Label,249,2,Other Soft Plastic,0.649527006672843,0.0285448188771194
47,NN,SX,SXM,Sint Maarten,Netherlands,North America,133,Sint Maarten,1,804.6735439,804.7,151,812,438,53.9,46.1,215,0,35,8,0,2,1,0,1,0,55,20,0,27,2,56,8,5,0,3,0,0,0,0,0,215,49.1,Plastic Beverage Bottle,56,12.8,Cigarette Butts,55,12.6,Plastic Bag,35,8,Plastic Bottle Cap Or Lid,27,6.2,Plastic Drinking Straw,20,4.6,Wrapper or Label,8,1.8,Plastic/Foam Food Container,8,1.8,Plastic/Foam Food Container,5,1.1,Plastic Straps,3,1,"Fishing Line, Lure, Rope",0.316927129833362,0.00364581574950763
48,NS,SR,SUR,Suriname,Suriname,South America,140,Suriname,15,39754.09176,2650.3,216,26239,24473,93.3,6.7,17056,59,2602,469,0,18,3,3008,4,0,289,24,0,1,190,14,0,3,27,13,0,9,0,262,422,17056,69.7,Plastic Beverage Bottle,3008,12.3,"Plastic/Foam Plates, Cups, Silverware",2602,10.6,Plastic Bottle Cap Or Lid,469,1.9,Plastic/Foam Food Container,422,1.7,Other Plastic Debris,289,1.2,Plastic Bag,262,1.1,Other Foam Plastic Debris,190,0.8,Other Soft Plastic,59,0.2,Other Plastic Bottle,27,0,Fishing Net,17.1266128562143,11.8104208073356
49,TD,TT,TTO,Trinidad and Tobago,Trinidad and Tobago,South America,147,Trinidad and Tobago,86,132936.5756,1545.8,7805,410335,309547,75.4,24.6,93476,4309,37310,15775,0,1581,1167,36481,1709,0,16576,16306,0,3960,10973,6948,667,1052,1594,4419,0,845,0,32680,21719,93476,30.2,Plastic Beverage Bottle,37310,12.1,Plastic Bottle Cap Or Lid,36481,11.8,"Plastic/Foam Plates, Cups, Silverware",32680,10.6,Other Foam Plastic Debris,21719,7,Other Plastic Debris,16576,5.4,Plastic Bag,16306,5.3,Wrapper or Label,15775,5.1,Plastic/Foam Food Container,10973,3.5,Other Soft Plastic,6948,2,Cigarette Butts,4.38497237260372,0.413752703505742
50,VQ,VI,VIR,US Virgin Islands,United States,North America,155,US Virgin Islands,144,104441.798,725.3,1621,78467,53074,67.6,32.4,6055,391,7851,1524,0,285,436,6411,398,0,3375,5488,0,4029,1877,4657,187,281,245,903,0,91,0,1549,7041,7851,14.8,Plastic Bottle Cap Or Lid,7041,13.3,Other Plastic Debris,6411,12.1,"Plastic/Foam Plates, Cups, Silverware",6055,11.4,Plastic Beverage Bottle,5488,10.3,Wrapper or Label,4657,8.8,Cigarette Butts,4029,7.6,Plastic Drinking Straw,3375,6.4,Plastic Bag,1877,3.5,Other Soft Plastic,1549,3,Other Foam Plastic Debris,1.2366278919911,0.0256854985718851
51,VE,VE,VEN,Venezuela,Venezuela,South America,157,Venezuela,412,389959.7663,946.5,16940,996277,734416,73.7,26.3,86535,13494,139809,34212,0,2173,2431,101471,12213,0,75611,46286,0,33037,17012,65115,2974,1929,2059,4539,0,1155,0,30564,61797,139809,19,Plastic Bottle Cap Or Lid,101471,13.8,"Plastic/Foam Plates, Cups, Silverware",86535,11.8,Plastic Beverage Bottle,75611,10.3,Plastic Bag,65115,8.9,Cigarette Butts,61797,8.4,Other Plastic Debris,46286,6.3,Wrapper or Label,34212,4.7,Plastic/Foam Food Container,33037,4.5,Plastic Drinking Straw,30564,4,Other Foam Plastic Debris,76.9474475082579,74.6283769596413
52,CV,CV,CPV,Cabo Verde,Cabo Verde,Africa,23,Cabo Verde,2,3864.525162,1932.3,19,677,624,92.2,7.8,38,0,74,0,0,0,0,50,2,0,97,38,0,0,0,1,0,12,2,10,0,0,0,0,300,300,48.1,Other Plastic Debris,97,15.5,Plastic Bag,74,11.9,Plastic Bottle Cap Or Lid,50,8,"Plastic/Foam Plates, Cups, Silverware",38,6.1,Plastic Beverage Bottle,38,6.1,Plastic Beverage Bottle,12,1.9,Plastic Straps,10,1.6,"Fishing Line, Lure, Rope",2,0.3,Plastic Personal Care Product,2,0,Plastic Personal Care Product,6.51261964068571,0.340358451390859
53,GH,GH,GHA,Ghana,Ghana,Africa,53,Ghana,25,91690.29725,3667.6,7461,78174420,75662540,96.8,3.2,249266,226499,651452,996202,0,5058,2742,1828998,78624,0,405456,1009304,0,2997454,106429,3664162,1891,4645,14774,20062,0,1410,0,19717722,43680390,43680390,57.7,Other Plastic Debris,19717722,26.1,Other Foam Plastic Debris,3664162,4.8,Cigarette Butts,2997454,4,Plastic Drinking Straw,1828998,2.4,"Plastic/Foam Plates, Cups, Silverware",1009304,1.3,Wrapper or Label,996202,1.3,Plastic/Foam Food Container,651452,0.9,Plastic Bottle Cap Or Lid,405456,0.5,Plastic Bag,249266,0,Plastic Beverage Bottle,23.0136635498903,19.6118156834455
54,GI,GI,GIB,Gibraltar,United Kingdom,Europe,54,Gibraltar,1,632.4555321,632.5,8,366,145,39.6,60.4,25,0,4,0,0,0,3,5,0,0,23,4,0,0,3,0,0,0,0,6,0,0,0,0,72,72,49.7,Other Plastic Debris,25,17.2,Plastic Beverage Bottle,23,15.9,Plastic Bag,6,4.1,"Fishing Line, Lure, Rope",5,3.4,"Plastic/Foam Plates, Cups, Silverware",4,2.8,Plastic Bottle Cap Or Lid,4,2.8,Plastic Bottle Cap Or Lid,3,2.1,Other Hard Plastic,3,2.1,Other Hard Plastic,0,0,Other Plastic Bottle,0.14483256826606,0.000785835002308252
55,MR,MR,MRT,Mauritania,Mauritania,Africa,84,Mauritania,1,115,115,,10,0,0,100,0,0,0,,0,,0,0,0,0,0,0,0,,0,,0,0,0,0,0,0,0,0,,0,0,Plastic Beverage Bottle,0,0,Plastic Beverage Bottle,0,0,Plastic Beverage Bottle,0,0,Plastic Beverage Bottle,0,0,Plastic Beverage Bottle,0,0,Plastic Beverage Bottle,0,0,Plastic Beverage Bottle,0,0,Plastic Beverage Bottle,0,0,Plastic Beverage Bottle,0,0,Plastic Beverage Bottle,52.3083889579325,89.9050768768699
56,MO,MA,MAR,Morocco,Morocco,Africa,90,Morocco,13,4230.461191,325.4,109,5171,4108,79.4,20.6,519,8,341,250,0,154,110,107,188,350,721,136,0,41,147,644,1,0,57,46,0,3,25,142,118,721,17.6,Plastic Bag,644,15.7,Cigarette Butts,519,12.6,Plastic Beverage Bottle,350,8.5,Lollipop Stick or EarBud,341,8.3,Plastic Bottle Cap Or Lid,250,6.1,Plastic/Foam Food Container,188,4.6,Plastic Personal Care Product,154,3.7,Plastic Lighter,147,3.6,Other Soft Plastic,142,4,Other Foam Plastic Debris,56.1032566019243,62.4631664510801
57,PO,PT,PRT,Portugal,Portugal,Europe,111,Portugal,177,92094.32576,520.3,889,81807,72303,88.4,11.6,3728,252,2913,1757,1,166,2264,1142,982,4116,2995,2569,5,1734,3310,24884,206,95,1149,2103,17,198,155,10040,5522,24884,34.4,Cigarette Butts,10040,13.9,Other Foam Plastic Debris,5522,7.6,Other Plastic Debris,4116,5.7,Lollipop Stick or EarBud,3728,5.2,Plastic Beverage Bottle,3310,4.6,Other Soft Plastic,2995,4.1,Plastic Bag,2913,4,Plastic Bottle Cap Or Lid,2569,3.6,Wrapper or Label,2264,3,Other Hard Plastic,27.228027774608,9.64156669261192
58,SG,SN,SEN,Senegal,Senegal,Africa,128,Senegal,12,23130.31706,1927.5,194,2675,2164,80.9,19.1,1327,6,18,130,0,0,5,116,0,0,83,274,0,14,25,4,0,0,0,5,0,0,0,127,30,1327,61.3,Plastic Beverage Bottle,274,12.7,Wrapper or Label,130,6,Plastic/Foam Food Container,127,5.9,Other Foam Plastic Debris,116,5.4,"Plastic/Foam Plates, Cups, Silverware",83,3.8,Plastic Bag,30,1.4,Other Plastic Debris,25,1.2,Other Soft Plastic,18,0.8,Plastic Bottle Cap Or Lid,14,1,Plastic Drinking Straw,31.0109467880112,16.4280056041136
59,SL,SL,SLE,Sierra Leone,Sierra Leone,Africa,131,Sierra Leone,1,1609.347088,1609.3,200,1,1,100,0,0,0,0,0,0,0,0,0,0,0,0,0,0,0,0,0,0,0,0,0,0,0,0,0,1,1,100,Other Plastic Debris,0,0,Plastic Beverage Bottle,0,0,Plastic Beverage Bottle,0,0,Plastic Beverage Bottle,0,0,Plastic Beverage Bottle,0,0,Plastic Beverage Bottle,0,0,Plastic Beverage Bottle,0,0,Plastic Beverage Bottle,0,0,Plastic Beverage Bottle,0,0,Plastic Beverage Bottle,13.8097170031067,5.95383635548871
60,GK,GG,GGY,Guernsey,United Kingdom,Europe,59,Guernsey,47,10438.75794,222.1,599,17499,15913,90.9,9.1,270,61,601,83,0,40,45,310,43,0,397,1182,0,30,920,932,2,153,595,911,0,32,0,470,8836,8836,55.5,Other Plastic Debris,1182,7.4,Wrapper or Label,932,5.9,Cigarette Butts,920,5.8,Other Soft Plastic,911,5.7,"Fishing Line, Lure, Rope",601,3.8,Plastic Bottle Cap Or Lid,595,3.7,Fishing Net,470,3,Other Foam Plastic Debris,397,2.5,Plastic Bag,310,2,"Plastic/Foam Plates, Cups, Silverware",0.416945004192839,0.00902517732404161
61,EI,IE,IRL,Ireland,Ireland,Europe,66,Ireland,341,333796.8524,978.9,5819,25211,20684,82,18,1606,76,2267,597,0,59,101,601,269,6,1208,2584,111,520,563,2143,70,423,893,2481,2,126,4,389,3585,3585,17.3,Other Plastic Debris,2584,12.5,Wrapper or Label,2481,12,"Fishing Line, Lure, Rope",2267,11,Plastic Bottle Cap Or Lid,2143,10.4,Cigarette Butts,1606,7.8,Plastic Beverage Bottle,1208,5.8,Plastic Bag,893,4.3,Fishing Net,601,2.9,"Plastic/Foam Plates, Cups, Silverware",597,3,Plastic/Foam Food Container,34.8280700553007,9.35949141577186
62,IM,IM,IMY,Isle of Man,United Kingdom,Europe,67,Isle of Man,2,595.4584225,297.7,14,4009,3692,92.1,7.9,95,11,209,5,0,0,2,47,3,0,55,56,0,22,35,7,2,34,94,932,0,6,0,1038,1039,1039,28.1,Other Plastic Debris,1038,28.1,Other Foam Plastic Debris,932,25.2,"Fishing Line, Lure, Rope",209,5.7,Plastic Bottle Cap Or Lid,95,2.6,Plastic Beverage Bottle,94,2.5,Fishing Net,56,1.5,Wrapper or Label,55,1.5,Plastic Bag,47,1.3,"Plastic/Foam Plates, Cups, Silverware",35,1,Other Soft Plastic,1.29516993936175,0.0851470425116302
63,JE,JE,JEY,Jersey,United Kingdom,Europe,72,Jersey,2,1700.003263,850,43,284,239,84.2,15.8,30,2,11,0,0,0,0,20,1,0,0,15,0,0,18,63,0,0,7,7,0,0,0,0,65,65,27.2,Other Plastic Debris,63,26.4,Cigarette Butts,30,12.6,Plastic Beverage Bottle,20,8.4,"Plastic/Foam Plates, Cups, Silverware",18,7.5,Other Soft Plastic,15,6.3,Wrapper or Label,11,4.6,Plastic Bottle Cap Or Lid,7,2.9,Fishing Net,7,2.9,Fishing Net,2,1,Other Plastic Bottle,0.576975587627457,0.0153948777365318
64,UK,GB,GBR,United Kingdom,United Kingdom,Europe,152,United Kingdom,1491,692161.6544,464.2,25011,698308,590674,84.6,15.4,19060,3417,49457,8729,17,1636,5225,22095,5376,801,18928,61406,110,5485,71803,57759,302,4798,29374,47689,9,997,65,32456,143680,143680,24.3,Other Plastic Debris,71803,12.2,Other Soft Plastic,61406,10.4,Wrapper or Label,57759,9.8,Cigarette Butts,49457,8.4,Plastic Bottle Cap Or Lid,47689,8.1,"Fishing Line, Lure, Rope",32456,5.5,Other Foam Plastic Debris,29374,5,Fishing Net,22095,3.7,"Plastic/Foam Plates, Cups, Silverware",19060,3,Plastic Beverage Bottle,115.974235858025,33.6304585437425
65,IC,IS,ISL,Iceland,Iceland,Europe,62,Iceland,13,1296.490014,99.7,64,759,619,81.6,18.4,65,0,44,90,0,0,3,1,1,0,50,1,0,2,36,5,0,0,0,111,0,0,0,0,210,210,33.9,Other Plastic Debris,111,17.9,"Fishing Line, Lure, Rope",90,14.5,Plastic/Foam Food Container,65,10.5,Plastic Beverage Bottle,50,8.1,Plastic Bag,44,7.1,Plastic Bottle Cap Or Lid,36,5.8,Other Soft Plastic,5,0.8,Cigarette Butts,3,0.5,Other Hard Plastic,2,0,Plastic Drinking Straw,58.7777198333545,19.5735710097009
66,NZ,NZ,NZL,New Zealand,New Zealand,Oceania,97,New Zealand,52,39257.39738,754.9,246,8511,7612,89.4,10.6,305,17,631,178,0,9,61,153,32,0,1027,325,0,216,250,370,0,40,98,166,0,8,0,26,3700,3700,48.6,Other Plastic Debris,1027,13.5,Plastic Bag,631,8.3,Plastic Bottle Cap Or Lid,370,4.9,Cigarette Butts,325,4.3,Wrapper or Label,305,4,Plastic Beverage Bottle,250,3.3,Other Soft Plastic,216,2.8,Plastic Drinking Straw,178,2.3,Plastic/Foam Food Container,166,2,"Fishing Line, Lure, Rope",80.3321209420615,29.1742387075363
67,KE,KE,KEN,Kenya,Kenya,Africa,74,Kenya,68,1663037.546,24456.4,18790,690525,611112,88.5,11.5,103602,21258,88807,19950,0,4056,6716,14466,4788,0,108175,51912,0,22207,27423,62023,353,1656,7480,10905,0,5666,0,15193,34476,108175,17.7,Plastic Bag,103602,17,Plastic Beverage Bottle,88807,14.5,Plastic Bottle Cap Or Lid,62023,10.1,Cigarette Butts,51912,8.5,Wrapper or Label,34476,5.6,Other Plastic Debris,27423,4.5,Other Soft Plastic,22207,3.6,Plastic Drinking Straw,21258,3.5,Other Plastic Bottle,19950,3,Plastic/Foam Food Container,33.6126787249779,47.3068521302406
68,MI,MW,MWI,Malawi,Malawi,Africa,79,Malawi,5,14516.31073,2903.3,632,331151,276629,83.5,16.5,20753,2223,18210,4112,0,9,916,38282,34162,0,81154,13909,0,632,16885,13119,3900,134,10987,3599,0,92,0,901,12650,81154,29.3,Plastic Bag,38282,13.8,"Plastic/Foam Plates, Cups, Silverware",34162,12.3,Plastic Personal Care Product,20753,7.5,Plastic Beverage Bottle,18210,6.6,Plastic Bottle Cap Or Lid,16885,6.1,Other Soft Plastic,13909,5,Wrapper or Label,13119,4.7,Cigarette Butts,12650,4.6,Other Plastic Debris,10987,4,Fishing Net,23.1402375587206,9.88624877317454
69,MZ,MZ,MOZ,Mozambique,Mozambique,Africa,91,Mozambique,15,84024.01146,5601.6,644,82218,75472,91.8,8.2,5814,1054,20225,1435,0,1465,255,1726,233,0,2025,1093,0,989,3200,2015,131,624,1078,4618,0,280,0,3323,23889,23889,31.7,Other Plastic Debris,20225,26.8,Plastic Bottle Cap Or Lid,5814,7.7,Plastic Beverage Bottle,4618,6.1,"Fishing Line, Lure, Rope",3323,4.4,Other Foam Plastic Debris,3200,4.2,Other Soft Plastic,2025,2.7,Plastic Bag,2015,2.7,Cigarette Butts,1726,2.3,"Plastic/Foam Plates, Cups, Silverware",1465,2,Plastic Lighter,66.9889117652907,66.9765245724269
70,WA,NA,NAM,Namibia,Namibia,Africa,93,Namibia,1,2494.487986,2494.5,50,592,465,78.5,21.5,122,6,57,7,0,2,0,10,2,0,38,140,0,4,12,0,0,0,2,63,0,0,0,0,0,140,30.1,Wrapper or Label,122,26.2,Plastic Beverage Bottle,63,13.5,"Fishing Line, Lure, Rope",57,12.3,Plastic Bottle Cap Or Lid,38,8.2,Plastic Bag,12,2.6,Other Soft Plastic,10,2.2,"Plastic/Foam Plates, Cups, Silverware",7,1.5,Plastic/Foam Food Container,6,1.3,Other Plastic Bottle,4,1,Plastic Drinking Straw,48.9028241375105,72.3101390468875
71,TP,ST,STP,Sao Tome and Principe,Sao Tome and Principe,Africa,126,Sao Tome and Principe,1,18.82936093,18.8,1,1,1,100,0,1,0,0,0,0,0,0,0,0,0,0,0,0,0,0,0,0,0,0,0,0,0,0,0,0,1,100,Plastic Beverage Bottle,0,0,Other Plastic Bottle,0,0,Other Plastic Bottle,0,0,Other Plastic Bottle,0,0,Other Plastic Bottle,0,0,Other Plastic Bottle,0,0,Other Plastic Bottle,0,0,Other Plastic Bottle,0,0,Other Plastic Bottle,0,0,Other Plastic Bottle,1.52828430104051,0.0927900313986776
72,SF,ZA,ZAF,South Africa,South Africa,Africa,136,South Africa,662,1200876.657,1814,31606,593908,499649,84.1,15.9,29939,3682,59056,13516,0,1625,932,9674,3723,18,22728,43799,0,27230,17395,64138,265,1919,1914,12224,1,757,5,50726,134383,134383,26.9,Other Plastic Debris,64138,12.8,Cigarette Butts,59056,11.8,Plastic Bottle Cap Or Lid,50726,10.2,Other Foam Plastic Debris,43799,8.8,Wrapper or Label,29939,6,Plastic Beverage Bottle,27230,5.4,Plastic Drinking Straw,22728,4.5,Plastic Bag,17395,3.5,Other Soft Plastic,13516,3,Plastic/Foam Food Container,68.4548469993622,113.136000570002
73,TZ,TZ,TZA,Tanzania,Tanzania,Africa,143,Tanzania,10,111011.0188,11101.1,32162,109381,101778,93,7,4657,885,22214,1412,0,118,24,1675,915,0,27313,27606,0,3027,6207,325,0,226,110,291,0,7,0,3812,954,27606,27.1,Wrapper or Label,27313,26.8,Plastic Bag,22214,21.8,Plastic Bottle Cap Or Lid,6207,6.1,Other Soft Plastic,4657,4.6,Plastic Beverage Bottle,3812,3.7,Other Foam Plastic Debris,3027,3,Plastic Drinking Straw,1675,1.6,"Plastic/Foam Plates, Cups, Silverware",1412,1.4,Plastic/Foam Food Container,954,1,Other Plastic Debris,45.4054960742136,77.0087782007619
74,MA,MG,MDG,Madagascar,Madagascar,Africa,77,Madagascar,1,186,186,,1117,1068,95.6,4.4,25,0,22,,0,1,102,5,0,4,265,295,0,,40,220,0,0,77,0,0,0,0,12,,295,27.6,Wrapper or Label,265,24.8,Plastic Bag,220,20.6,Cigarette Butts,102,9.6,Other Hard Plastic,77,7.2,Fishing Net,40,3.7,Other Soft Plastic,25,2.3,Plastic Beverage Bottle,22,2.1,Plastic Bottle Cap Or Lid,12,1.1,Other Foam Plastic Debris,5,0,"Plastic/Foam Plates, Cups, Silverware",45.456551440316,51.0710246171739
75,MP,MU,MUS,Mauritius,Mauritius,Africa,85,Mauritius,17,22992.74806,1352.5,711,40111,32763,81.7,18.3,5936,304,1269,607,0,75,73,1250,101,0,2992,2708,0,223,6414,5006,8,118,76,164,0,47,0,1019,4373,6414,19.6,Other Soft Plastic,5936,18.1,Plastic Beverage Bottle,5006,15.3,Cigarette Butts,4373,13.3,Other Plastic Debris,2992,9.1,Plastic Bag,2708,8.3,Wrapper or Label,1269,3.9,Plastic Bottle Cap Or Lid,1250,3.8,"Plastic/Foam Plates, Cups, Silverware",1019,3.1,Other Foam Plastic Debris,607,2,Plastic/Foam Food Container,1.99526777940481,0.185448296080234
76,SE,SC,SYC,Seychelles,Seychelles,Africa,130,Seychelles,186,306187.9235,1646.2,580,13007,11393,87.6,12.4,796,40,663,197,0,72,32,133,54,0,373,386,0,190,1275,71,0,15,22,160,0,15,0,1698,5201,5201,45.7,Other Plastic Debris,1698,14.9,Other Foam Plastic Debris,1275,11.2,Other Soft Plastic,796,7,Plastic Beverage Bottle,663,5.8,Plastic Bottle Cap Or Lid,386,3.4,Wrapper or Label,373,3.3,Plastic Bag,197,1.7,Plastic/Foam Food Container,190,1.7,Plastic Drinking Straw,160,1,"Fishing Line, Lure, Rope",1.35672674889137,0.030892405643913
77,AG,DZ,DZA,Algeria,Algeria,Africa,3,Algeria,3,584.336772,194.8,10,7333,6711,91.5,8.5,3900,0,500,250,0,5,213,195,60,175,1060,140,0,15,7,70,0,0,5,30,0,0,10,75,1,3900,58.1,Plastic Beverage Bottle,1060,15.8,Plastic Bag,500,7.5,Plastic Bottle Cap Or Lid,250,3.7,Plastic/Foam Food Container,213,3.2,Other Hard Plastic,195,2.9,"Plastic/Foam Plates, Cups, Silverware",175,2.6,Lollipop Stick or EarBud,140,2.1,Wrapper or Label,75,1.1,Other Foam Plastic Debris,70,1,Cigarette Butts,70.5400821480332,213.51346147469
78,CM,CM,CMR,Cameroon,Cameroon,Africa,25,Cameroon,1,402.336772,402.3,80,39220,34070,86.9,13.1,19386,1926,4279,4800,0,14,14,147,269,0,547,852,0,323,171,484,12,0,146,80,0,0,0,310,310,19386,56.9,Plastic Beverage Bottle,4800,14.1,Plastic/Foam Food Container,4279,12.6,Plastic Bottle Cap Or Lid,1926,5.7,Other Plastic Bottle,852,2.5,Wrapper or Label,547,1.6,Plastic Bag,484,1.4,Cigarette Butts,323,0.9,Plastic Drinking Straw,310,0.9,Other Foam Plastic Debris,310,1,Other Foam Plastic Debris,41.9605955591003,37.9727127150895
79,KR,KI,KIR,Kiribati,Kiribati,Oceania,75,Kiribati,1,402.336772,402.3,200,1,1,100,0,0,0,0,0,0,0,0,0,0,0,0,0,0,0,0,0,0,0,0,0,0,0,0,0,1,1,100,Other Plastic Debris,0,0,Plastic Beverage Bottle,0,0,Plastic Beverage Bottle,0,0,Plastic Beverage Bottle,0,0,Plastic Beverage Bottle,0,0,Plastic Beverage Bottle,0,0,Plastic Beverage Bottle,0,0,Plastic Beverage Bottle,0,0,Plastic Beverage Bottle,0,0,Plastic Beverage Bottle,1.6817992939581,0.0343520562384554
80,MT,MT,MLT,Malta,Malta,Europe,82,Malta,40,52305.41671,1307.6,233,5479,3725,68,32,608,69,161,212,0,12,7,88,12,2,530,91,0,110,105,927,1,122,25,147,0,45,1,23,427,927,24.9,Cigarette Butts,608,16.3,Plastic Beverage Bottle,530,14.2,Plastic Bag,427,11.5,Other Plastic Debris,212,5.7,Plastic/Foam Food Container,161,4.3,Plastic Bottle Cap Or Lid,147,3.9,"Fishing Line, Lure, Rope",122,3.3,Plastic Straps,110,3,Plastic Drinking Straw,105,3,Other Soft Plastic,0.680191749329458,0.0293864324999376
81,NI,NG,NGA,Nigeria,Nigeria,Africa,99,Nigeria,26,8037.079357,309.1,492,33426,30176,90.3,9.7,4594,72,8167,2077,0,21,104,4503,55,0,2534,4408,0,946,853,419,28,4,38,72,0,1,0,95,1185,8167,27.1,Plastic Bottle Cap Or Lid,4594,15.2,Plastic Beverage Bottle,4503,14.9,"Plastic/Foam Plates, Cups, Silverware",4408,14.6,Wrapper or Label,2534,8.4,Plastic Bag,2077,6.9,Plastic/Foam Food Container,1185,3.9,Other Plastic Debris,946,3.1,Plastic Drinking Straw,853,2.8,Other Soft Plastic,419,1,Cigarette Butts,48.1080821565213,74.8876415617036
82,TS,TN,TUN,Tunisia,Tunisia,Africa,148,Tunisia,6,6195.986289,1032.7,28,276,238,86.2,13.8,4,0,4,3,0,0,0,3,0,0,0,0,0,0,0,0,1,0,43,115,0,35,0,0,30,115,48.3,"Fishing Line, Lure, Rope",43,18.1,Fishing Net,35,14.7,Buoys And Floats,30,12.6,Other Plastic Debris,4,1.7,Plastic Beverage Bottle,4,1.7,Plastic Beverage Bottle,3,1.3,Plastic/Foam Food Container,3,1.3,Plastic/Foam Food Container,1,0.4,"String, Ring, Ribbon",0,0,Other Plastic Bottle,25.0143018386522,15.1889325706781
83,CY,CY,CYP,Cyprus,Cyprus,Asia,37,Cyprus,87,30271.5831,347.9,1810,64456,59293,92,8,900,49,2652,305,5,87,1454,898,111,39,1127,2640,0,3009,1225,39520,154,1538,68,378,3,12,4,928,2187,39520,66.7,Cigarette Butts,3009,5.1,Plastic Drinking Straw,2652,4.5,Plastic Bottle Cap Or Lid,2640,4.5,Wrapper or Label,2187,3.7,Other Plastic Debris,1538,2.6,Plastic Straps,1454,2.5,Other Hard Plastic,1225,2.1,Other Soft Plastic,1127,1.9,Plastic Bag,928,2,Other Foam Plastic Debris,6.03730112728512,0.902662600331361
84,EG,EG,EGY,Egypt,Egypt,Africa,43,Egypt,4,4866.03165,1216.5,66,491,434,88.4,11.6,70,4,7,20,0,4,0,7,2,0,68,52,0,2,13,5,0,0,0,89,0,3,0,0,88,89,20.5,"Fishing Line, Lure, Rope",88,20.3,Other Plastic Debris,70,16.1,Plastic Beverage Bottle,68,15.7,Plastic Bag,52,12,Wrapper or Label,20,4.6,Plastic/Foam Food Container,13,3,Other Soft Plastic,7,1.6,Plastic Bottle Cap Or Lid,7,1.6,Plastic Bottle Cap Or Lid,5,1,Cigarette Butts,53.2304769357048,90.4911275490231
85,ET,ET,ETH,Ethiopia,Ethiopia,Africa,46,Ethiopia,1,402.336772,402.3,5,1,1,100,0,0,0,0,0,0,0,0,0,0,0,0,0,0,0,0,0,0,0,0,0,0,0,0,0,1,1,100,Other Plastic Debris,0,0,Plastic Beverage Bottle,0,0,Plastic Beverage Bottle,0,0,Plastic Beverage Bottle,0,0,Plastic Beverage Bottle,0,0,Plastic Beverage Bottle,0,0,Plastic Beverage Bottle,0,0,Plastic Beverage Bottle,0,0,Plastic Beverage Bottle,0,0,Plastic Beverage Bottle,46.8103153828025,92.7227606723222
86,GR,GR,GRC,Greece,Greece,Europe,55,Greece,251,167479.6281,667.2,7995,187779,164274,87.5,12.5,10097,1328,21647,1512,42,1958,7401,6224,688,446,6059,4075,268,13463,3122,57875,281,290,1684,3502,54,309,296,9955,11698,57875,35.2,Cigarette Butts,21647,13.2,Plastic Bottle Cap Or Lid,13463,8.2,Plastic Drinking Straw,11698,7.1,Other Plastic Debris,10097,6.1,Plastic Beverage Bottle,9955,6.1,Other Foam Plastic Debris,7401,4.5,Other Hard Plastic,6224,3.8,"Plastic/Foam Plates, Cups, Silverware",6059,3.7,Plastic Bag,4075,2,Wrapper or Label,80.3967368804621,13.5434265364628
87,IS,IL,ISR,Israel,Israel,Asia,68,Israel,14,7732.294881,552.3,474,11981,10229,85.4,14.6,284,21,474,125,0,32,60,647,50,6,1027,377,0,286,192,3477,8,40,91,150,1,27,1,423,2430,3477,34,Cigarette Butts,2430,23.8,Other Plastic Debris,1027,10,Plastic Bag,647,6.3,"Plastic/Foam Plates, Cups, Silverware",474,4.6,Plastic Bottle Cap Or Lid,423,4.1,Other Foam Plastic Debris,377,3.7,Wrapper or Label,286,2.8,Plastic Drinking Straw,284,2.8,Plastic Beverage Bottle,192,2,Other Soft Plastic,10.7808023413693,1.96436311605035
88,TU,TR,TUR,Turkey,Turkey,Asia,149,Turkey,36,36724.81774,1020.1,2351,57744,50256,87,13,6016,249,3031,1108,0,17,160,850,83,0,1187,2557,0,379,1905,25946,0,0,129,196,0,2,0,950,5491,25946,51.6,Cigarette Butts,6016,12,Plastic Beverage Bottle,5491,10.9,Other Plastic Debris,3031,6,Plastic Bottle Cap Or Lid,2557,5.1,Wrapper or Label,1905,3.8,Other Soft Plastic,1187,2.4,Plastic Bag,1108,2.2,Plastic/Foam Food Container,950,1.9,Other Foam Plastic Debris,850,2,"Plastic/Foam Plates, Cups, Silverware",76.9907310439309,81.1993245243819
89,US,US,USA,United States,United States,North America,153,United States,30964,73519479.35,2374.4,694291,17827180,15408125,86.4,13.6,753841,79025,1299959,340111,0,35730,367499,493995,86960,0,574797,1122403,0,484522,450447,3046535,22267,57776,81344,252040,0,31932,0,3244620,2582322,3244620,21.1,Other Foam Plastic Debris,3046535,19.8,Cigarette Butts,2582322,16.8,Other Plastic Debris,1299959,8.4,Plastic Bottle Cap Or Lid,1122403,7.3,Wrapper or Label,753841,4.9,Plastic Beverage Bottle,574797,3.7,Plastic Bag,493995,3.2,"Plastic/Foam Plates, Cups, Silverware",484522,3.1,Plastic Drinking Straw,450447,3,Other Soft Plastic,726.106055706286,1116.67060408084
90,FR,FR,FRA,France,France,Europe,49,France,263,55203.03613,209.9,215,139803,121350,86.8,13.2,5733,40,6533,3030,2,1220,18681,2678,814,11310,11152,4328,34,1249,771,22217,27,109,6175,10071,1,7,1921,12273,974,22217,18.3,Cigarette Butts,18681,15.4,Other Hard Plastic,12273,10.1,Other Foam Plastic Debris,11310,9.3,Lollipop Stick or EarBud,11152,9.2,Plastic Bag,10071,8.3,"Fishing Line, Lure, Rope",6533,5.4,Plastic Bottle Cap Or Lid,6175,5.1,Fishing Net,5733,4.7,Plastic Beverage Bottle,4328,4,Wrapper or Label,65.8470426697624,64.3483245023564
91,SZ,CH,CHE,Switzerland,Switzerland,Europe,142,Switzerland,1044,117079.7055,112.1,555,100054,61254,61.2,38.8,1134,121,1422,373,20,395,7283,783,822,1473,2150,5036,3276,338,346,30503,285,387,46,504,0,2,67,4089,399,30503,49.8,Cigarette Butts,7283,11.9,Other Hard Plastic,5036,8.2,Wrapper or Label,4089,6.7,Other Foam Plastic Debris,3276,5.3,Plastic Sheet,2150,3.5,Plastic Bag,1473,2.4,Lollipop Stick or EarBud,1422,2.3,Plastic Bottle Cap Or Lid,1134,1.9,Plastic Beverage Bottle,822,1,Plastic Personal Care Product,15.5315260299243,4.88927641340332
92,BE,BE,BEL,Belgium,Belgium,Europe,14,Belgium,17,24403.4913,1435.5,127,1919,1670,87,13,125,7,109,29,0,8,114,72,6,18,320,88,0,28,14,218,2,6,206,152,2,1,11,53,81,320,19.2,Plastic Bag,218,13.1,Cigarette Butts,206,12.3,Fishing Net,152,9.1,"Fishing Line, Lure, Rope",125,7.5,Plastic Beverage Bottle,114,6.8,Other Hard Plastic,109,6.5,Plastic Bottle Cap Or Lid,88,5.3,Wrapper or Label,81,4.9,Other Plastic Debris,72,4,"Plastic/Foam Plates, Cups, Silverware",11.9990027214603,3.89551852675851
93,GM,DE,DEU,Germany,Germany,Europe,52,Germany,224,896065.876,4000.3,3102,147496,131305,89,11,1425,13,5055,1624,0,111,516,2383,425,44,4145,13119,10,2140,3276,75902,7,246,337,1506,0,11,8,5929,13073,75902,57.8,Cigarette Butts,13119,10,Wrapper or Label,13073,10,Other Plastic Debris,5929,4.5,Other Foam Plastic Debris,5055,3.8,Plastic Bottle Cap Or Lid,4145,3.2,Plastic Bag,3276,2.5,Other Soft Plastic,2383,1.8,"Plastic/Foam Plates, Cups, Silverware",2140,1.6,Plastic Drinking Straw,1624,1,Plastic/Foam Food Container,56.115037657816,45.8720539664335
94,NL,NL,NLD,Netherlands,Netherlands,Europe,95,Netherlands,99,498294.9821,5033.3,5524,29283,27662,94.5,5.5,393,2,18401,157,0,7,275,172,67,89,392,548,0,193,274,4783,14,19,221,734,0,0,118,142,661,18401,66.5,Plastic Bottle Cap Or Lid,4783,17.3,Cigarette Butts,734,2.7,"Fishing Line, Lure, Rope",661,2.4,Other Plastic Debris,548,2,Wrapper or Label,393,1.4,Plastic Beverage Bottle,392,1.4,Plastic Bag,275,1,Other Hard Plastic,274,1,Other Soft Plastic,221,1,Fishing Net,25.8042315658678,4.59885345918326
95,AL,AL,ALB,Albania,Albania,Europe,2,Albania,3,4.667106555,1.6,3,21,18,85.7,14.3,6,0,1,4,0,0,0,0,1,0,2,1,0,1,0,0,0,0,0,0,0,0,0,0,2,6,33.3,Plastic Beverage Bottle,4,22.2,Plastic/Foam Food Container,2,11.1,Plastic Bag,2,11.1,Plastic Bag,1,5.6,Plastic Bottle Cap Or Lid,1,5.6,Plastic Bottle Cap Or Lid,1,5.6,Plastic Bottle Cap Or Lid,1,5.6,Plastic Bottle Cap Or Lid,0,0,Other Plastic Bottle,0,0,Other Plastic Bottle,9.62503796718696,3.07353997577452
96,AU,AT,AUT,Austria,Austria,Europe,8,Austria,3,309.7993145,103.3,4,56,46,82.1,17.9,2,0,1,3,0,0,1,0,1,0,1,10,0,3,0,15,0,0,0,1,0,0,0,0,8,15,32.6,Cigarette Butts,10,21.7,Wrapper or Label,8,17.4,Other Plastic Debris,3,6.5,Plastic/Foam Food Container,3,6.5,Plastic/Foam Food Container,2,4.3,Plastic Beverage Bottle,1,2.2,Plastic Bottle Cap Or Lid,1,2.2,Plastic Bottle Cap Or Lid,1,2.2,Plastic Bottle Cap Or Lid,1,2,Plastic Bottle Cap Or Lid,22.067937106156,10.0394406895067
97,BK,BA,BIH,Bosnia and Herzegovina,Bosnia and Herzegovina,Europe,18,Bosnia and Herzegovina,1,1551,1551,,2583,2215,85.8,14.2,73,0,90,14,0,,0,70,0,9,52,28,0,45,0,895,0,0,10,35,0,0,0,894,,895,40.4,Cigarette Butts,894,40.4,Other Foam Plastic Debris,90,4.1,Plastic Bottle Cap Or Lid,73,3.3,Plastic Beverage Bottle,70,3.2,"Plastic/Foam Plates, Cups, Silverware",52,2.3,Plastic Bag,45,2,Plastic Drinking Straw,35,1.6,"Fishing Line, Lure, Rope",28,1.3,Wrapper or Label,14,1,Plastic/Foam Food Container,13.0905841998927,5.79843284829244
98,HR,HR,HRV,Croatia,Croatia,Europe,34,Croatia,8,15747.75957,1968.5,37,10892,10377,95.3,4.7,150,96,1793,133,0,20,2350,103,73,1008,120,15,0,117,20,528,262,6,491,499,15,0,0,2568,10,2568,24.7,Other Foam Plastic Debris,2350,22.6,Other Hard Plastic,1793,17.3,Plastic Bottle Cap Or Lid,1008,9.7,Lollipop Stick or EarBud,528,5.1,Cigarette Butts,499,4.8,"Fishing Line, Lure, Rope",491,4.7,Fishing Net,262,2.5,"String, Ring, Ribbon",150,1.4,Plastic Beverage Bottle,133,1,Plastic/Foam Food Container,37.589229184483,6.38464182490369
99,EZ,CZ,CZE,Czech Republic,Czech Republic,Europe,38,Czech Republic,6,542.9937075,90.5,9,20,17,85,15,0,0,2,0,0,0,0,0,0,0,1,1,0,1,0,11,0,0,0,0,0,0,0,0,1,11,64.7,Cigarette Butts,2,11.8,Plastic Bottle Cap Or Lid,1,5.9,Plastic Bag,1,5.9,Plastic Bag,1,5.9,Plastic Bag,1,5.9,Plastic Bag,0,0,Plastic Beverage Bottle,0,0,Plastic Beverage Bottle,0,0,Plastic Beverage Bottle,0,0,Plastic Beverage Bottle,18.4495843614122,9.82420951548002
100,DA,DK,DNK,Denmark,Denmark,Europe,39,Denmark,165,79145.2709,479.7,225,59691,39527,66.2,33.8,369,258,3773,674,16,310,10366,404,443,2284,1425,2376,276,619,790,2342,312,216,417,5370,342,22,147,4362,1614,10366,26.2,Other Hard Plastic,5370,13.6,"Fishing Line, Lure, Rope",4362,11,Other Foam Plastic Debris,3773,9.5,Plastic Bottle Cap Or Lid,2376,6,Wrapper or Label,2342,5.9,Cigarette Butts,2284,5.8,Lollipop Stick or EarBud,1614,4.1,Other Plastic Debris,1425,3.6,Plastic Bag,790,2,Other Soft Plastic,45.3818393438465,6.14293911949449
101,IT,IT,ITA,Italy,Italy,Europe,69,Italy,472,77801.32717,164.8,386,362166,313247,86.5,13.5,15156,9711,19049,5351,962,1360,38096,10644,3930,29986,18638,10763,2231,4650,10438,32868,6203,2195,14280,3826,218,408,14276,54051,3957,54051,17.3,Other Foam Plastic Debris,38096,12.2,Other Hard Plastic,32868,10.5,Cigarette Butts,29986,9.6,Lollipop Stick or EarBud,19049,6.1,Plastic Bottle Cap Or Lid,18638,5.9,Plastic Bag,15156,4.8,Plastic Beverage Bottle,14280,4.6,Fishing Net,14276,4.6,Other Plastic Fishing Debris,10763,3,Wrapper or Label,68.0442849558732,33.0550655278475
102,MJ,ME,MNE,Montenegro,Montenegro,Europe,88,Montenegro,1,0,0,1,6,3,50,50,1,0,2,0,0,0,0,0,0,0,0,0,0,0,0,0,0,0,0,0,0,0,0,0,0,2,66.7,Plastic Bottle Cap Or Lid,1,33.3,Plastic Beverage Bottle,0,0,Other Plastic Bottle,0,0,Other Plastic Bottle,0,0,Other Plastic Bottle,0,0,Other Plastic Bottle,0,0,Other Plastic Bottle,0,0,Other Plastic Bottle,0,0,Other Plastic Bottle,0,0,Other Plastic Bottle,7.28827348277655,1.51800436205588
103,PL,PL,POL,Poland,Poland,Europe,110,Poland,6,7465.278336,1244.2,353,4644,3055,65.8,34.2,456,19,406,334,0,29,23,240,52,0,323,409,0,61,78,342,6,14,5,32,0,30,0,30,166,456,14.9,Plastic Beverage Bottle,409,13.4,Wrapper or Label,406,13.3,Plastic Bottle Cap Or Lid,342,11.2,Cigarette Butts,334,10.9,Plastic/Foam Food Container,323,10.6,Plastic Bag,240,7.9,"Plastic/Foam Plates, Cups, Silverware",166,5.4,Other Plastic Debris,78,2.6,Other Soft Plastic,61,2,Plastic Drinking Straw,35.3278357146765,40.9107305214155
104,RI,RS,SRB,Serbia,Serbia,Europe,129,Serbia,1,86,86,,1289,1131,87.7,12.3,292,21,350,33,0,2,0,0,0,0,13,79,0,,45,24,0,0,0,0,0,0,0,272,,350,30.9,Plastic Bottle Cap Or Lid,292,25.8,Plastic Beverage Bottle,272,24,Other Foam Plastic Debris,79,7,Wrapper or Label,45,4,Other Soft Plastic,33,2.9,Plastic/Foam Food Container,24,2.1,Cigarette Butts,21,1.9,Other Plastic Bottle,13,1.1,Plastic Bag,2,0,Plastic Lighter,19.4849922898443,9.89661076833205
105,LO,SK,SVK,Slovakia,Slovakia,Europe,134,Slovakia,1,0,0,2,2,2,100,0,0,0,0,0,0,0,0,0,0,0,1,0,0,1,0,0,0,0,0,0,0,0,0,0,0,1,50,Plastic Bag,1,50,Plastic Bag,0,0,Plastic Beverage Bottle,0,0,Plastic Beverage Bottle,0,0,Plastic Beverage Bottle,0,0,Plastic Beverage Bottle,0,0,Plastic Beverage Bottle,0,0,Plastic Beverage Bottle,0,0,Plastic Beverage Bottle,0,0,Plastic Beverage Bottle,14.3096717199867,5.97807800363134
106,SI,SI,SVN,Slovenia,Slovenia,Europe,135,Slovenia,71,32560.64319,458.6,623,67395,55096,81.8,18.2,946,36,1950,1266,2,169,3284,958,142,931,3185,2239,61,599,383,25618,125,219,1649,734,46,48,105,7576,2825,25618,46.5,Cigarette Butts,7576,13.8,Other Foam Plastic Debris,3284,6,Other Hard Plastic,3185,5.8,Plastic Bag,2825,5.1,Other Plastic Debris,2239,4.1,Wrapper or Label,1950,3.5,Plastic Bottle Cap Or Lid,1649,3,Fishing Net,1266,2.3,Plastic/Foam Food Container,958,2,"Plastic/Foam Plates, Cups, Silverware",9.95203228699855,2.37699205077552
107,NO,NO,NOR,Norway,Norway,Europe,102,Norway,519,459031.7753,884.5,9868,48289,41372,85.7,14.3,4975,1719,2130,1339,1,315,147,261,164,5,2533,55,0,305,429,3456,32,2183,2262,2049,1,617,6,5938,10450,10450,25.3,Other Plastic Debris,5938,14.4,Other Foam Plastic Debris,4975,12,Plastic Beverage Bottle,3456,8.4,Cigarette Butts,2533,6.1,Plastic Bag,2262,5.5,Fishing Net,2183,5.3,Plastic Straps,2130,5.1,Plastic Bottle Cap Or Lid,2049,5,"Fishing Line, Lure, Rope",1719,4,Other Plastic Bottle,295.015214639863,59.9396434114785
108,SW,SE,SWE,Sweden,Sweden,Europe,141,Sweden,500,655373.208,1310.7,9197,7709,5357,69.5,30.5,230,20,417,177,0,8,126,218,36,10,504,319,0,168,146,1243,10,94,53,400,0,15,52,161,950,1243,23.2,Cigarette Butts,950,17.7,Other Plastic Debris,504,9.4,Plastic Bag,417,7.8,Plastic Bottle Cap Or Lid,400,7.5,"Fishing Line, Lure, Rope",319,6,Wrapper or Label,230,4.3,Plastic Beverage Bottle,218,4.1,"Plastic/Foam Plates, Cups, Silverware",177,3.3,Plastic/Foam Food Container,168,3,Plastic Drinking Straw,92.1859283348148,78.5686040076174
109,BU,BG,BGR,Bulgaria,Bulgaria,Europe,22,Bulgaria,60,92449.06296,1540.8,37,29335,25283,86.2,13.8,2699,300,4367,334,37,231,885,1705,93,136,1477,1283,48,543,161,5132,453,21,142,623,14,11,49,4518,21,5132,20.3,Cigarette Butts,4518,17.9,Other Foam Plastic Debris,4367,17.3,Plastic Bottle Cap Or Lid,2699,10.7,Plastic Beverage Bottle,1705,6.7,"Plastic/Foam Plates, Cups, Silverware",1477,5.8,Plastic Bag,1283,5.1,Wrapper or Label,885,3.5,Other Hard Plastic,623,2.5,"Fishing Line, Lure, Rope",543,2,Plastic Drinking Straw,20.3151893703566,12.2104312912765
110,EN,EE,EST,Estonia,Estonia,Europe,45,Estonia,4,1425.972979,356.5,2,2591,1449,55.9,44.1,35,9,135,45,2,12,104,27,9,18,169,76,1,7,7,518,9,3,12,5,1,2,9,231,3,518,35.7,Cigarette Butts,231,15.9,Other Foam Plastic Debris,169,11.7,Plastic Bag,135,9.3,Plastic Bottle Cap Or Lid,104,7.2,Other Hard Plastic,76,5.2,Wrapper or Label,45,3.1,Plastic/Foam Food Container,35,2.4,Plastic Beverage Bottle,27,1.9,"Plastic/Foam Plates, Cups, Silverware",18,1,Lollipop Stick or EarBud,23.6520492280923,7.10781336664417
111,FI,FI,FIN,Finland,Finland,Europe,48,Finland,6,4854.304369,809.1,50,800,284,35.5,64.5,51,0,3,22,0,12,0,34,0,0,16,10,0,1,13,70,0,1,1,3,0,3,0,0,44,70,24.6,Cigarette Butts,51,18,Plastic Beverage Bottle,44,15.5,Other Plastic Debris,34,12,"Plastic/Foam Plates, Cups, Silverware",22,7.7,Plastic/Foam Food Container,16,5.6,Plastic Bag,13,4.6,Other Soft Plastic,12,4.2,Plastic Lighter,10,3.5,Wrapper or Label,3,1,Plastic Bottle Cap Or Lid,69.126094200252,62.6549846541702
112,GG,GE,GEO,Georgia,Georgia,Asia,51,Georgia,3,154,51.3,,3224,2813,87.3,12.7,184,103,756,60,0,41,293,22,139,34,37,286,1,79,6,30,88,0,0,21,0,0,0,633,,756,26.9,Plastic Bottle Cap Or Lid,633,22.5,Other Foam Plastic Debris,293,10.4,Other Hard Plastic,286,10.2,Wrapper or Label,184,6.5,Plastic Beverage Bottle,139,4.9,Plastic Personal Care Product,103,3.7,Other Plastic Bottle,88,3.1,"String, Ring, Ribbon",79,2.8,Plastic Drinking Straw,60,2,Plastic/Foam Food Container,17.8569454617286,7.62324070878868
113,RO,RO,ROU,Romania,Romania,Europe,115,Romania,95,79930.34709,841.4,50,111349,91907,82.5,17.5,2550,293,5588,472,31,177,4337,1793,183,1300,6240,6623,299,4124,646,50451,453,576,236,1325,17,0,7,4186,0,50451,54.9,Cigarette Butts,6623,7.2,Wrapper or Label,6240,6.8,Plastic Bag,5588,6.1,Plastic Bottle Cap Or Lid,4337,4.7,Other Hard Plastic,4186,4.6,Other Foam Plastic Debris,4124,4.5,Plastic Drinking Straw,2550,2.8,Plastic Beverage Bottle,1793,2,"Plastic/Foam Plates, Cups, Silverware",1325,1,"Fishing Line, Lure, Rope",29.0362918606015,27.4983093434768
114,UP,UA,UKR,Ukraine,Ukraine,Europe,150,Ukraine,6,2678705.792,446451,98,43776,35401,80.9,19.1,9825,55,3487,1125,0,23,51,1352,124,23,961,3950,3,215,1045,6692,3,11,5,70,1,0,0,3122,3258,9825,27.8,Plastic Beverage Bottle,6692,18.9,Cigarette Butts,3950,11.2,Wrapper or Label,3487,9.9,Plastic Bottle Cap Or Lid,3258,9.2,Other Plastic Debris,3122,8.8,Other Foam Plastic Debris,1352,3.8,"Plastic/Foam Plates, Cups, Silverware",1125,3.2,Plastic/Foam Food Container,1045,3,Other Soft Plastic,961,3,Plastic Bag,79.5452703064847,73.4829480183514
115,IN,IN,IND,India,India,Asia,63,India,347,1361163.88,3922.7,30119,1175389,917247,78,22,76491,21620,94552,86934,0,6351,16770,115600,12702,0,232549,62418,0,27637,39858,48122,1176,6389,5925,10071,0,3705,0,13863,34514,232549,25.4,Plastic Bag,115600,12.6,"Plastic/Foam Plates, Cups, Silverware",94552,10.3,Plastic Bottle Cap Or Lid,86934,9.5,Plastic/Foam Food Container,76491,8.3,Plastic Beverage Bottle,62418,6.8,Wrapper or Label,48122,5.2,Cigarette Butts,39858,4.3,Other Soft Plastic,34514,3.8,Other Plastic Debris,27637,3,Plastic Drinking Straw,176.501522088684,278.68862479418
116,IR,IR,IRN,Iran,Iran,Asia,65,Iran,1,450.6171846,450.6,2,2,1,50,50,0,0,0,0,0,0,0,0,0,0,1,0,0,0,0,0,0,0,0,0,0,0,0,0,0,1,100,Plastic Bag,0,0,Plastic Beverage Bottle,0,0,Plastic Beverage Bottle,0,0,Plastic Beverage Bottle,0,0,Plastic Beverage Bottle,0,0,Plastic Beverage Bottle,0,0,Plastic Beverage Bottle,0,0,Plastic Beverage Bottle,0,0,Plastic Beverage Bottle,0,0,Plastic Beverage Bottle,75.7732135497736,161.769893413655
117,KU,KW,KWT,Kuwait,Kuwait,Asia,76,Kuwait,55,63091.7167,1147.1,955,2980,2538,85.2,14.8,340,0,176,120,0,0,9,164,19,0,495,430,0,31,39,30,0,0,11,5,0,0,0,0,669,669,26.4,Other Plastic Debris,495,19.5,Plastic Bag,430,16.9,Wrapper or Label,340,13.4,Plastic Beverage Bottle,176,6.9,Plastic Bottle Cap Or Lid,164,6.5,"Plastic/Foam Plates, Cups, Silverware",120,4.7,Plastic/Foam Food Container,39,1.5,Other Soft Plastic,31,1.2,Plastic Drinking Straw,30,1,Cigarette Butts,7.54876823135952,1.55508511011981
118,MV,MV,MDV,Maldives,Maldives,Asia,81,Maldives,11,13074.97948,1188.6,174,17396,14102,81.1,18.9,6132,2,5922,35,0,33,2,149,220,0,320,362,0,56,137,562,9,12,11,73,0,7,0,6,52,6132,43.5,Plastic Beverage Bottle,5922,42,Plastic Bottle Cap Or Lid,562,4,Cigarette Butts,362,2.6,Wrapper or Label,320,2.3,Plastic Bag,220,1.6,Plastic Personal Care Product,149,1.1,"Plastic/Foam Plates, Cups, Silverware",137,1,Other Soft Plastic,73,0.5,"Fishing Line, Lure, Rope",56,0,Plastic Drinking Straw,1.1286304939579,0.00273840320076474
119,NP,NP,NPL,Nepal,Nepal,Asia,94,Nepal,1,154.9193331,154.9,3,5,4,80,20,0,0,0,0,0,0,0,0,0,0,0,0,0,0,0,0,0,0,0,4,0,0,0,0,0,4,100,"Fishing Line, Lure, Rope",0,0,Plastic Beverage Bottle,0,0,Plastic Beverage Bottle,0,0,Plastic Beverage Bottle,0,0,Plastic Beverage Bottle,0,0,Plastic Beverage Bottle,0,0,Plastic Beverage Bottle,0,0,Plastic Beverage Bottle,0,0,Plastic Beverage Bottle,0,0,Plastic Beverage Bottle,23.5332666624438,13.5337204540791
120,MU,OM,OMN,Oman,Oman,Asia,103,Oman,1,204.7089496,204.7,28,522,503,96.4,3.6,133,0,150,5,0,0,0,6,43,0,12,53,0,5,0,20,0,0,0,24,0,0,0,0,52,150,29.8,Plastic Bottle Cap Or Lid,133,26.4,Plastic Beverage Bottle,53,10.5,Wrapper or Label,52,10.3,Other Plastic Debris,43,8.5,Plastic Personal Care Product,24,4.8,"Fishing Line, Lure, Rope",20,4,Cigarette Butts,12,2.4,Plastic Bag,6,1.2,"Plastic/Foam Plates, Cups, Silverware",5,1,Plastic/Foam Food Container,32.3352139102476,26.7609144799117
121,PK,PK,PAK,Pakistan,Pakistan,Asia,104,Pakistan,4,91.08904518,22.8,25,293,226,77.1,22.9,35,1,1,2,0,0,3,17,0,0,71,39,0,3,4,7,0,0,7,11,0,0,0,0,25,71,31.4,Plastic Bag,39,17.3,Wrapper or Label,35,15.5,Plastic Beverage Bottle,25,11.1,Other Plastic Debris,17,7.5,"Plastic/Foam Plates, Cups, Silverware",11,4.9,"Fishing Line, Lure, Rope",7,3.1,Cigarette Butts,7,3.1,Cigarette Butts,4,1.8,Other Soft Plastic,3,1,Other Hard Plastic,71.729793749466,82.062516417017
122,QA,QA,QAT,Qatar,Qatar,Asia,113,Qatar,8,2144.493651,268.1,146,1507,1332,88.4,11.6,221,1,95,37,0,0,4,69,1,0,152,165,0,54,16,25,0,7,0,137,0,0,0,0,348,348,26.1,Other Plastic Debris,221,16.6,Plastic Beverage Bottle,165,12.4,Wrapper or Label,152,11.4,Plastic Bag,137,10.3,"Fishing Line, Lure, Rope",95,7.1,Plastic Bottle Cap Or Lid,69,5.2,"Plastic/Foam Plates, Cups, Silverware",54,4.1,Plastic Drinking Straw,37,2.8,Plastic/Foam Food Container,25,2,Cigarette Butts,4.78981111818869,0.994812395404474
123,SA,SA,SAU,Saudi Arabia,Saudi Arabia,Asia,127,Saudi Arabia,7,2087.076988,298.2,40,811,735,90.6,9.4,69,0,271,6,0,0,2,63,2,0,31,14,0,19,8,4,0,151,2,72,0,2,0,0,19,271,36.9,Plastic Bottle Cap Or Lid,151,20.5,Plastic Straps,72,9.8,"Fishing Line, Lure, Rope",69,9.4,Plastic Beverage Bottle,63,8.6,"Plastic/Foam Plates, Cups, Silverware",31,4.2,Plastic Bag,19,2.6,Plastic Drinking Straw,19,2.6,Plastic Drinking Straw,14,1.9,Wrapper or Label,8,1,Other Soft Plastic,68.2767058219291,171.282272504786
124,CE,LK,LKA,Sri Lanka,Sri Lanka,Asia,139,Sri Lanka,137,266063.5948,1942.1,24489,873311,715860,82,18,179539,13686,63534,31546,0,2832,6378,32044,3952,0,108989,55830,0,25462,19161,28527,2456,4899,8530,12838,0,9777,0,82052,23828,179539,25.1,Plastic Beverage Bottle,108989,15.2,Plastic Bag,82052,11.5,Other Foam Plastic Debris,63534,8.9,Plastic Bottle Cap Or Lid,55830,7.8,Wrapper or Label,32044,4.5,"Plastic/Foam Plates, Cups, Silverware",31546,4.4,Plastic/Foam Food Container,28527,4,Cigarette Butts,25462,3.6,Plastic Drinking Straw,23828,3,Other Plastic Debris,13.9984198688963,5.41208787037282
125,AE,AE,ARE,United Arab Emirates,United Arab Emirates,Asia,151,United Arab Emirates,62,94377.20332,1522.2,3238,438406,429399,97.9,2.1,5884,359,7137,1896,0,246,493,2671,138,0,3172,2197,0,1045,1132,396227,94,188,328,1390,0,226,0,1529,3047,396227,92.3,Cigarette Butts,7137,1.7,Plastic Bottle Cap Or Lid,5884,1.4,Plastic Beverage Bottle,3172,0.7,Plastic Bag,3047,0.7,Other Plastic Debris,2671,0.6,"Plastic/Foam Plates, Cups, Silverware",2197,0.5,Wrapper or Label,1896,0.4,Plastic/Foam Food Container,1529,0.4,Other Foam Plastic Debris,1390,0,"Fishing Line, Lure, Rope",16.7596763618108,6.23985017776336
126,AJ,AZ,AZE,Azerbaijan,Azerbaijan,Asia,9,Azerbaijan,2,5616.621337,2808.3,608,1127,641,56.9,43.1,120,0,66,47,0,0,0,0,3,0,6,154,0,0,20,90,0,0,0,0,0,0,0,15,120,154,24,Wrapper or Label,120,18.7,Plastic Beverage Bottle,120,18.7,Plastic Beverage Bottle,90,14,Cigarette Butts,66,10.3,Plastic Bottle Cap Or Lid,47,7.3,Plastic/Foam Food Container,20,3.1,Other Soft Plastic,15,2.3,Other Foam Plastic Debris,6,0.9,Plastic Bag,3,0,Plastic Personal Care Product,28.5751292775421,17.4071412836052
127,KZ,KZ,KAZ,Kazakhstan,Kazakhstan,Asia,73,Kazakhstan,1,698.7785056,698.8,1,11,8,72.7,27.3,0,0,0,0,0,0,0,5,0,0,2,0,0,0,0,0,0,0,0,0,0,0,0,0,1,5,62.5,"Plastic/Foam Plates, Cups, Silverware",2,25,Plastic Bag,1,12.5,Other Plastic Debris,0,0,Plastic Beverage Bottle,0,0,Plastic Beverage Bottle,0,0,Plastic Beverage Bottle,0,0,Plastic Beverage Bottle,0,0,Plastic Beverage Bottle,0,0,Plastic Beverage Bottle,0,0,Plastic Beverage Bottle,140.347747514673,343.160066315914
128,ID,ID,IDN,Indonesia,Indonesia,Asia,64,Indonesia,196,514048.4866,2622.7,16569,353319,321166,90.9,9.1,21067,2451,26062,19667,0,1280,1089,11267,2133,0,23509,30698,0,26347,10574,108661,574,545,971,3674,0,561,0,11447,18589,108661,33.8,Cigarette Butts,30698,9.6,Wrapper or Label,26347,8.2,Plastic Drinking Straw,26062,8.1,Plastic Bottle Cap Or Lid,23509,7.3,Plastic Bag,21067,6.6,Plastic Beverage Bottle,19667,6.1,Plastic/Foam Food Container,18589,5.8,Other Plastic Debris,11447,3.6,Other Foam Plastic Debris,11267,4,"Plastic/Foam Plates, Cups, Silverware",416.255007864059,153.002509035604
129,TT,TL,TLS,Timor-Leste,Timor-Leste,Asia,145,Timor-Leste,2,28.96824759,14.5,2,5,5,100,0,1,0,0,0,0,0,0,1,0,0,0,0,0,0,3,0,0,0,0,0,0,0,0,0,0,3,60,Other Soft Plastic,1,20,Plastic Beverage Bottle,1,20,Plastic Beverage Bottle,0,0,Other Plastic Bottle,0,0,Other Plastic Bottle,0,0,Other Plastic Bottle,0,0,Other Plastic Bottle,0,0,Other Plastic Bottle,0,0,Other Plastic Bottle,0,0,Other Plastic Bottle,7.71955078817512,1.23630443837409
130,AS,AU,AUS,Australia,Australia,Australia,7,Australia,525,1794847.856,3418.8,10774,126935,108213,85.3,14.7,1503,862,7416,845,0,192,514,1693,290,0,2488,10751,0,5802,2418,16781,56,554,2630,4133,0,1669,0,2191,45425,45425,42,Other Plastic Debris,16781,15.5,Cigarette Butts,10751,9.9,Wrapper or Label,7416,6.9,Plastic Bottle Cap Or Lid,5802,5.4,Plastic Drinking Straw,4133,3.8,"Fishing Line, Lure, Rope",2630,2.4,Fishing Net,2488,2.3,Plastic Bag,2418,2.2,Other Soft Plastic,2191,2,Other Foam Plastic Debris,252.1652376572,695.539924438433
131,NC,NC,NCL,New Caledonia,France,Oceania,96,New Caledonia,2,362,181,,1559,881,56.5,43.5,335,0,120,,0,5,0,50,0,40,80,50,0,10,6,150,0,0,5,20,0,0,0,10,,335,38,Plastic Beverage Bottle,150,17,Cigarette Butts,120,13.6,Plastic Bottle Cap Or Lid,80,9.1,Plastic Bag,50,5.7,"Plastic/Foam Plates, Cups, Silverware",50,5.7,"Plastic/Foam Plates, Cups, Silverware",40,4.5,Lollipop Stick or EarBud,20,2.3,"Fishing Line, Lure, Rope",10,1.1,Plastic Drinking Straw,10,1,Plastic Drinking Straw,12.5718707822505,1.64059897862012
132,NH,VU,VUT,Vanuatu,Vanuatu,Oceania,156,Vanuatu,33,85804.71826,2600.1,634,68801,52920,76.9,23.1,4850,1381,3412,3073,0,247,339,3260,674,0,8292,7429,0,1494,5977,2857,256,172,85,354,0,89,0,1581,7098,8292,15.7,Plastic Bag,7429,14,Wrapper or Label,7098,13.4,Other Plastic Debris,5977,11.3,Other Soft Plastic,4850,9.2,Plastic Beverage Bottle,3412,6.4,Plastic Bottle Cap Or Lid,3260,6.2,"Plastic/Foam Plates, Cups, Silverware",3073,5.8,Plastic/Foam Food Container,2857,5.4,Cigarette Butts,1581,3,Other Foam Plastic Debris,16.4114684876115,1.03713514928821
133,CB,KH,KHM,Cambodia,Cambodia,Asia,24,Cambodia,25,6880.60254,275.2,311,30648,28366,92.6,7.4,4945,220,1550,537,0,102,36,2251,161,0,4174,1458,0,2263,1389,455,378,67,201,1145,0,244,0,4943,1847,4945,17.4,Plastic Beverage Bottle,4943,17.4,Other Foam Plastic Debris,4174,14.7,Plastic Bag,2263,8,Plastic Drinking Straw,2251,7.9,"Plastic/Foam Plates, Cups, Silverware",1847,6.5,Other Plastic Debris,1550,5.5,Plastic Bottle Cap Or Lid,1458,5.1,Wrapper or Label,1389,4.9,Other Soft Plastic,1145,4,"Fishing Line, Lure, Rope",21.9939984386738,15.1285324152302
134,MY,MY,MYS,Malaysia,Malaysia,Asia,80,Malaysia,3012,5971644.764,1982.6,32249,1882829,1734188,92.1,7.9,150655,2255,75210,58137,0,1175,4097,18280,3741,0,50793,51256,0,31459,15935,854377,203,672,1520,30271,0,890,0,11315,371947,854377,49.3,Cigarette Butts,371947,21.4,Other Plastic Debris,150655,8.7,Plastic Beverage Bottle,75210,4.3,Plastic Bottle Cap Or Lid,58137,3.4,Plastic/Foam Food Container,51256,3,Wrapper or Label,50793,2.9,Plastic Bag,31459,1.8,Plastic Drinking Straw,30271,1.7,"Fishing Line, Lure, Rope",18280,1,"Plastic/Foam Plates, Cups, Silverware",60.766762329779,26.7531942781319
135,BM,MM,MMR,Myanmar,Myanmar,Asia,92,Myanmar,1,36.04937477,36,2,24,23,95.8,4.2,2,0,0,0,0,0,0,3,0,0,1,11,0,2,0,4,0,0,0,0,0,0,0,0,0,11,47.8,Wrapper or Label,4,17.4,Cigarette Butts,3,13,"Plastic/Foam Plates, Cups, Silverware",2,8.7,Plastic Beverage Bottle,2,8.7,Plastic Beverage Bottle,1,4.3,Plastic Bag,0,0,Other Plastic Bottle,0,0,Other Plastic Bottle,0,0,Other Plastic Bottle,0,0,Other Plastic Bottle,87.3471888604081,58.1201079308494
136,SN,SG,SGP,Singapore,Singapore,Asia,132,Singapore,72,116250.3622,1614.6,10633,532479,504954,94.8,5.2,58307,6193,23159,12867,0,2873,1818,27377,512,0,35120,27189,0,34982,21115,63711,267,2763,2334,5102,0,432,0,126410,52423,126410,25,Other Foam Plastic Debris,63711,12.6,Cigarette Butts,58307,11.5,Plastic Beverage Bottle,52423,10.4,Other Plastic Debris,35120,7,Plastic Bag,34982,6.9,Plastic Drinking Straw,27377,5.4,"Plastic/Foam Plates, Cups, Silverware",27189,5.4,Wrapper or Label,23159,4.6,Plastic Bottle Cap Or Lid,21115,4,Other Soft Plastic,0.858102624861657,0.0447879726422188
137,TH,TH,THA,Thailand,Thailand,Asia,144,Thailand,404,510888.3754,1264.6,20701,375732,327504,87.2,12.8,25915,545,32902,15555,0,3543,3534,41082,2077,0,61641,25249,0,26062,5782,16177,0,5267,3784,17969,0,6838,0,7112,26470,61641,18.8,Plastic Bag,41082,12.5,"Plastic/Foam Plates, Cups, Silverware",32902,10,Plastic Bottle Cap Or Lid,26470,8.1,Other Plastic Debris,26062,8,Plastic Drinking Straw,25915,7.9,Plastic Beverage Bottle,25249,7.7,Wrapper or Label,17969,5.5,"Fishing Line, Lure, Rope",16177,4.9,Cigarette Butts,15555,5,Plastic/Foam Food Container,65.5202806627292,43.1432262078941
138,VN,VN,VNM,Vietnam,Vietnam,Asia,158,Vietnam,49,28830.55063,588.4,3490,94049,84511,89.9,10.1,5934,1860,5698,7036,0,977,1380,4639,597,0,15757,5144,0,3304,4810,4684,321,1794,488,1654,0,11985,0,3474,2975,15757,18.6,Plastic Bag,11985,14.2,Buoys And Floats,7036,8.3,Plastic/Foam Food Container,5934,7,Plastic Beverage Bottle,5698,6.7,Plastic Bottle Cap Or Lid,5144,6.1,Wrapper or Label,4810,5.7,Other Soft Plastic,4684,5.5,Cigarette Butts,4639,5.5,"Plastic/Foam Plates, Cups, Silverware",3474,4,Other Foam Plastic Debris,66.8668024771442,27.5560819452413
139,BG,BD,BGD,Bangladesh,Bangladesh,Asia,12,Bangladesh,3,8255.95056,2752,1510,77416,75175,97.1,2.9,1168,236,2806,9515,0,101,172,604,77,0,2064,18313,0,5450,1943,23955,0,0,317,128,0,136,0,1225,6965,23955,31.9,Cigarette Butts,18313,24.4,Wrapper or Label,9515,12.7,Plastic/Foam Food Container,6965,9.3,Other Plastic Debris,5450,7.2,Plastic Drinking Straw,2806,3.7,Plastic Bottle Cap Or Lid,2064,2.7,Plastic Bag,1943,2.6,Other Soft Plastic,1225,1.6,Other Foam Plastic Debris,1168,2,Plastic Beverage Bottle,42.011938403434,12.2224536257588
140,CH,CN,CHN,China,China,Asia,30,China,585,7169515.314,12255.6,379747,1362274,1168139,85.7,14.3,164406,15585,129628,64809,0,18763,1999,76964,4093,0,71922,47178,0,90464,48425,39579,1126,3284,24479,15110,0,43708,0,228696,77921,228696,19.6,Other Foam Plastic Debris,164406,14.1,Plastic Beverage Bottle,129628,11.1,Plastic Bottle Cap Or Lid,90464,7.7,Plastic Drinking Straw,77921,6.7,Other Plastic Debris,76964,6.6,"Plastic/Foam Plates, Cups, Silverware",71922,6.2,Plastic Bag,64809,5.5,Plastic/Foam Food Container,48425,4.1,Other Soft Plastic,47178,4,Wrapper or Label,312.493593813618,953.844047625099
141,BX,BN,BRN,Brunei Darussalam,Brunei Darussalam,Asia,21,Brunei Darussalam,113,269954.4555,2389,2109,57821,51238,88.6,11.4,11414,756,6253,3578,0,203,391,4236,406,0,4034,3853,0,1696,1785,5607,47,188,150,662,0,65,0,1232,4682,11414,22.3,Plastic Beverage Bottle,6253,12.2,Plastic Bottle Cap Or Lid,5607,10.9,Cigarette Butts,4682,9.1,Other Plastic Debris,4236,8.3,"Plastic/Foam Plates, Cups, Silverware",4034,7.9,Plastic Bag,3853,7.5,Wrapper or Label,3578,7,Plastic/Foam Food Container,1785,3.5,Other Soft Plastic,1696,3,Plastic Drinking Straw,4.91882769870676,0.468299142120954
142,RP,PH,PHL,Philippines,Philippines,Asia,109,Philippines,514,3058851.652,5951.1,480298,12331695,11134930,90.3,9.7,627877,270488,1067501,521868,0,60803,109090,867346,284593,0,1518112,2999555,0,578646,503109,812026,51950,23957,41129,78042,0,29834,0,296244,392760,2999555,26.9,Wrapper or Label,1518112,13.6,Plastic Bag,1067501,9.6,Plastic Bottle Cap Or Lid,867346,7.8,"Plastic/Foam Plates, Cups, Silverware",812026,7.3,Cigarette Butts,627877,5.6,Plastic Beverage Bottle,578646,5.2,Plastic Drinking Straw,521868,4.7,Plastic/Foam Food Container,503109,4.5,Other Soft Plastic,392760,4,Other Plastic Debris,130.231350939325,24.3001925445458
143,KS,KR,KOR,South Korea,South Korea,Asia,137,South Korea,329,200455.4847,609.3,10236,221673,172849,78,22,11640,1261,11147,8544,0,1608,420,7227,296,0,25837,13508,0,6131,10854,36944,214,5667,7007,15487,0,7557,0,107,1393,36944,21.4,Cigarette Butts,25837,14.9,Plastic Bag,15487,9,"Fishing Line, Lure, Rope",13508,7.8,Wrapper or Label,11640,6.7,Plastic Beverage Bottle,11147,6.4,Plastic Bottle Cap Or Lid,10854,6.3,Other Soft Plastic,8544,4.9,Plastic/Foam Food Container,7557,4.4,Buoys And Floats,7227,4,"Plastic/Foam Plates, Cups, Silverware",28.333267700319,9.7668771305651
144,GQ,GU,GUM,Guam,United States,Oceania,57,Guam,196,126431.2728,645.1,12619,255551,173048,67.7,32.3,26346,3852,19091,6953,0,829,2508,15482,4778,0,13013,12810,0,3473,6244,28534,1389,802,657,1875,0,697,0,7608,16107,28534,16.5,Cigarette Butts,26346,15.2,Plastic Beverage Bottle,19091,11,Plastic Bottle Cap Or Lid,16107,9.3,Other Plastic Debris,15482,8.9,"Plastic/Foam Plates, Cups, Silverware",13013,7.5,Plastic Bag,12810,7.4,Wrapper or Label,7608,4.4,Other Foam Plastic Debris,6953,4,Plastic/Foam Food Container,6244,4,Other Soft Plastic,1.12001626303486,0.0480572424527572
145,JA,JP,JPN,Japan,Japan,Asia,71,Japan,371,422995.8995,1140.2,16556,416919,361353,86.7,13.3,31350,6727,26625,27874,0,4439,2733,4676,602,0,29650,23710,0,5674,9674,37800,181,1924,741,9276,0,3497,0,38616,95584,95584,26.5,Other Plastic Debris,38616,10.7,Other Foam Plastic Debris,37800,10.5,Cigarette Butts,31350,8.7,Plastic Beverage Bottle,29650,8.2,Plastic Bag,27874,7.7,Plastic/Foam Food Container,26625,7.4,Plastic Bottle Cap Or Lid,23710,6.6,Wrapper or Label,9674,2.7,Other Soft Plastic,9276,3,"Fishing Line, Lure, Rope",118.053101173549,37.9413075735606
146,RM,MH,MHL,Marshall Islands,Marshall Islands,Oceania,83,Marshall Islands,3,2092.151214,697.4,346,12513,8044,64.3,35.7,6051,155,163,270,0,0,0,255,9,0,465,105,0,0,499,0,0,0,0,5,0,12,0,40,15,6051,75.2,Plastic Beverage Bottle,499,6.2,Other Soft Plastic,465,5.8,Plastic Bag,270,3.4,Plastic/Foam Food Container,255,3.2,"Plastic/Foam Plates, Cups, Silverware",163,2,Plastic Bottle Cap Or Lid,155,1.9,Other Plastic Bottle,105,1.3,Wrapper or Label,40,0.5,Other Foam Plastic Debris,15,0,Other Plastic Debris,0.683479014594367,0.00284490857443403
147,FM,FM,FSM,Micronesia,Micronesia,Oceania,87,Micronesia,1,100,100,15,1689,847,50.1,49.9,63,211,82,0,0,57,188,72,8,0,0,3,0,0,10,0,0,0,17,4,0,2,0,126,4,211,24.9,Other Plastic Bottle,188,22.2,Other Hard Plastic,126,14.9,Other Foam Plastic Debris,82,9.7,Plastic Bottle Cap Or Lid,72,8.5,"Plastic/Foam Plates, Cups, Silverware",63,7.4,Plastic Beverage Bottle,57,6.7,Plastic Lighter,17,2,Fishing Net,10,1.2,Other Soft Plastic,8,1,Plastic Personal Care Product,1.04242123962844,0.0422057749991981
148,CQ,MP,MNP,Northern Mariana Islands,United States,Oceania,101,Northern Mariana Islands,185,373032.8146,2016.4,2731,96183,71581,74.4,25.6,5926,421,5410,2324,0,405,972,5294,470,0,5120,6092,0,1523,2699,22680,537,275,125,685,0,85,0,1806,8732,22680,31.7,Cigarette Butts,8732,12.2,Other Plastic Debris,6092,8.5,Wrapper or Label,5926,8.3,Plastic Beverage Bottle,5410,7.6,Plastic Bottle Cap Or Lid,5294,7.4,"Plastic/Foam Plates, Cups, Silverware",5120,7.2,Plastic Bag,2699,3.8,Other Soft Plastic,2324,3.2,Plastic/Foam Food Container,1806,2,Other Foam Plastic Debris,0.908853028594673,0.0199270310502614
149,PS,PW,PLW,Palau,Palau,Oceania,105,Palau,27,5096.606015,188.8,73,2816,2328,82.7,17.3,257,0,114,113,0,9,21,135,27,0,174,77,0,146,38,82,0,0,0,75,0,9,0,0,1051,1051,45.1,Other Plastic Debris,257,11,Plastic Beverage Bottle,174,7.5,Plastic Bag,146,6.3,Plastic Drinking Straw,135,5.8,"Plastic/Foam Plates, Cups, Silverware",114,4.9,Plastic Bottle Cap Or Lid,113,4.9,Plastic/Foam Food Container,82,3.5,Cigarette Butts,77,3.3,Wrapper or Label,75,3,"Fishing Line, Lure, Rope",1.10532330161376,0.0311360277077521
150,RS,RU,RUS,Russian Federation,Russian Federation,Asia,116,Russian Federation,22,11968.22149,544,409,10901,7650,70.2,29.8,356,336,254,81,2,17,168,357,482,89,879,636,15,311,111,904,52,48,121,206,10,982,16,526,691,982,12.8,Buoys And Floats,904,11.8,Cigarette Butts,879,11.5,Plastic Bag,691,9,Other Plastic Debris,636,8.3,Wrapper or Label,526,6.9,Other Foam Plastic Debris,482,6.3,Plastic Personal Care Product,357,4.7,"Plastic/Foam Plates, Cups, Silverware",356,4.7,Plastic Beverage Bottle,336,4,Other Plastic Bottle,1526.02496916873,2929.64166857247
151,RS,RU,RUS,Russian Federation,Russian Federation,Europe,116,Russian Federation,22,11968.22149,544,409,10901,7650,70.2,29.8,356,336,254,81,2,17,168,357,482,89,879,636,15,311,111,904,52,48,121,206,10,982,16,526,691,982,12.8,Buoys And Floats,904,11.8,Cigarette Butts,879,11.5,Plastic Bag,691,9,Other Plastic Debris,636,8.3,Wrapper or Label,526,6.9,Other Foam Plastic Debris,482,6.3,Plastic Personal Care Product,357,4.7,"Plastic/Foam Plates, Cups, Silverware",356,4.7,Plastic Beverage Bottle,336,4,Other Plastic Bottle,10.262180667257,1.88441361667667
152,SP,ES,ESP,Spain,Spain,Europe,138,Spain,245,132861.4288,542.3,4809,289930,257729,88.9,11.1,6675,561,14920,4328,1,401,5563,4659,1366,1384,12676,7931,20,14583,2875,72940,105,596,3619,6873,23,282,91,29458,65799,72940,28.3,Cigarette Butts,65799,25.5,Other Plastic Debris,29458,11.4,Other Foam Plastic Debris,14920,5.8,Plastic Bottle Cap Or Lid,14583,5.7,Plastic Drinking Straw,12676,4.9,Plastic Bag,7931,3.1,Wrapper or Label,6873,2.7,"Fishing Line, Lure, Rope",6675,2.6,Plastic Beverage Bottle,5563,2,Other Hard Plastic,51.7249563738779,52.9154485835425
153,SP,ES,ESP,Canarias,Spain,Africa,27,Canarias,34,31153.07532,916.3,480,5463,4391,80.4,19.6,731,38,347,157,0,15,24,321,34,0,244,174,0,115,164,401,61,37,41,189,0,23,0,498,777,777,17.7,Other Plastic Debris,731,16.6,Plastic Beverage Bottle,498,11.3,Other Foam Plastic Debris,401,9.1,Cigarette Butts,347,7.9,Plastic Bottle Cap Or Lid,321,7.3,"Plastic/Foam Plates, Cups, Silverware",244,5.6,Plastic Bag,189,4.3,"Fishing Line, Lure, Rope",174,4,Wrapper or Label,164,4,Other Soft Plastic,9.49147417217696,0.6953356566999
